title,address,latitude,longitude
씨유제주탑동,제주특별자치도 제주시 중앙로8길 5,3963823.285,14084607.73
씨유제주칠성로점,제주특별자치도 제주시 관덕로11길 8-3,3963723.417,14084779.28
레몬비제주중앙지하,제주특별자치도 제주시 중앙로 60,3963615.832,14084663.39
세븐일레븐제주칠성로점,제주특별자치도 제주시 관덕로15길 22,3963890.263,14084914.71
세븐일레븐제주신산로점,제주특별자치도 제주시 신산로 4,3963578.738,14085439.09
씨유제주동문,제주특별자치도 제주시 동문로 8,3963581.68,14084969.39
지에스25제주,제주특별자치도 제주시 중앙로 62,3963549.367,14084645.16
탑편의점,제주특별자치도 제주시 관덕로11길 17,3963815.317,14084724.06
세븐일레븐제주동문,제주특별자치도 제주시 동문로4길 24,3963469.935,14084899.08
지에스25제주동문,제주특별자치도 제주시 동문로6길 9,3963474.639,14085144.63
굿마트,제주특별자치도 제주시 동문로10길 1,3963585.67,14085418.63
씨유제주,제주특별자치도 제주시 신산로 16,3963448.489,14085421.76
GS25일도,제주특별자치도 제주시 태성로 20,3962016.354,14087309.54
지에스25제주인화점,제주특별자치도 제주시 동광로 113,3962745.535,14086270.28
세븐일레븐제주일도,제주특별자치도 제주시 삼성로 59,3962899.836,14085437.87
세븐일레븐제주,제주특별자치도 제주시 삼성로 114,3963249.569,14085993.65
씨유제주우성아파트점,제주특별자치도 제주시 태성로 3,3962133.6,14087345.05
세븐일레븐제주일도,제주특별자치도 제주시 동광로19길 55,3963616.681,14086417.42
GS25제주인제점,제주특별자치도 제주시 고마로 67,3962974.776,14086394.06
세븐일레븐제주일도,제주특별자치도 제주시 고마로 37-1,3963295.624,14086270.96
지에스25제주동광점,제주특별자치도 제주시 연신로 15,3961807.448,14086918.33
씨유제주서해점,제주특별자치도 제주시 고마로 101,3962580.749,14086533.76
지에스25일도,제주특별자치도 제주시 태성로 20,3962016.354,14087309.54
세븐일레븐제주삼성,제주특별자치도 제주시 신산로 36,3963216.243,14085511.29
씨유제주일도,제주특별자치도 제주시 동광로17길 36,3963164.854,14086216.48
지에스25일도연수중길점,제주특별자치도 제주시 연수중길 16,3962304.119,14086974.89
씨유제주일도,제주특별자치도 제주시 고마로 60,3963038.695,14086317.69
세븐일레븐제주인화로점,제주특별자치도 제주시 동광로21길 6,3963185.304,14086641.51
GS25제주상품권,제주특별자치도 제주시 고마로 127,3962315.187,14086650.08
씨제이올리브영제주일도,제주특별자치도 제주시 고마로15길 14,3962845.972,14086563.59
GS25제주,제주특별자치도 제주시 고마로 127,3962315.187,14086650.08
GS25제주동교점,제주특별자치도 제주시 동문로 68,3963644.962,14085694.56
지에스25제주고마로점,제주특별자치도 제주시 고마로 65-1,3962987.963,14086390.28
씨유제주대유,제주특별자치도 제주시 남광로 181,3962277.745,14087667.7
지에스25제주,제주특별자치도 제주시 고마로 16,3963509.267,14086142.16
씨유제주인화,제주특별자치도 제주시 동광로15길 8,3962691.483,14086108.11
씨유제주용인아파트점,제주특별자치도 제주시 고마로14길 16,3962641.364,14086308.88
지에스25신산공원점,제주특별자치도 제주시 신산로 85,3962694.919,14085840.9
지에스25제주영락점,제주특별자치도 제주시 고마로9길 25,3963320.18,14086560.55
세븐제주인화로점,제주특별자치도 제주시 동광로21길 6,3963185.304,14086641.51
씨유제주일도기산점,제주특별자치도 제주시 삼성로5길 9,3962805.19,14085215.17
씨유제주,제주특별자치도 제주시 연수로3길 5,3962214.371,14086755.72
세븐일레븐제주삼성,제주특별자치도 제주시 삼성로15길 26,3963130.994,14085695.8
씨유제주삼성로점,제주특별자치도 제주시 삼성로 100,3963102.152,14085868.72
씨유제주동초교점,제주특별자치도 제주시 신산로1길 15,3963593.735,14085647.35
씨유제주고마로점,제주특별자치도 제주시 고마로3길 33,3963499.397,14086550.86
지에스25제주,제주특별자치도 제주시 고마로 127,3962304.357,14086650.24
지에스일도신천지,제주특별자치도 제주시 천수로 85,3962690.648,14086901.21
씨유제주인화점,제주특별자치도 제주시 동광로 138,3962920.178,14086533.8
키트키트제주,제주특별자치도 제주시 광양4길 2,3962094.843,14085031.12
GS25제주보성점,제주특별자치도 제주시 중앙로 198,3962077.151,14085056.52
세븐일레븐제주신산파크점,제주특별자치도 제주시 동광로9길 39,3962448.335,14085343.6
지에스25제주,제주특별자치도 제주시 중앙로13길 16-2,3963364.207,14084828.69
씨유제주삼성혈점,제주특별자치도 제주시 삼성로 21,3962635.939,14085078.59
씨유제주,제주특별자치도 제주시 중앙로14길 1,3963356.144,14084601.17
씨유제주이도,제주특별자치도 제주시 동광로5길 16,3962272.831,14085359.25
사거리24時편의점,제주특별자치도 제주시 중앙로21길 21,3963015.635,14084863.57
세븐일레븐이도,제주특별자치도 제주시 동광로 51,3962283.799,14085707.71
씨유제주이도성지점,제주특별자치도 제주시 중앙로19길 15,3963080.063,14084739.26
씨유케이티점,제주특별자치도 제주시 전농로 115,3962482.073,14084754.9
씨유제주,제주특별자치도 제주시 중앙로 185,3962224.667,14085019.7
씨유제주칼호텔점,제주특별자치도 제주시 중앙로 143,3962662.803,14084767.92
GS25,제주특별자치도 제주시 동광로 21-1,3962119.33,14085398.55
씨유제주이도삼성로점,제주특별자치도 제주시 삼성로1길 26,3962832.715,14084866.15
세븐일레븐제주시민회관점,제주특별자치도 제주시 중앙로19길 2,3962999.114,14084633.77
씨유제주,제주특별자치도 제주시 서광로 283,3961929.398,14084907.67
지에스25이도구남점,제주특별자치도 제주시 구남동2길 11-1,3960510.103,14085981.78
세븐일레븐제주고산로점,제주특별자치도 제주시 중앙로 247,3961583.856,14085406.09
세븐일레븐제주이도,제주특별자치도 제주시 구남동6길 2,3960385.77,14086209.91
지에스25구남,제주특별자치도 제주시 구남동2길 47,3960274.273,14085644.92
지에스25이도신설점,제주특별자치도 제주시 신설로2길 1,3961064.111,14086607.67
세븐일레븐제주이도,제주특별자치도 제주시 동광로6길 11,3962001.851,14085516.4
지에스25제주,제주특별자치도 제주시 광양10길 2,3961778.47,14085211.68
지에스25동광로점,제주특별자치도 제주시 동광로 12,3962006.211,14085315.09
세븐일레븐제주이도아람점,제주특별자치도 제주시 중앙로 270-4,3961298.311,14085468.81
올리브영제주타운,제주특별자치도 제주시 광양11길 2,3961714.078,14085338.37
씨유제주일중,제주특별자치도 제주시 신설로2길 5-9,3961193.335,14086554.36
씨유제주삼주점,제주특별자치도 제주시 동고산로 29,3961731.334,14085705.89
세븐일레븐제주신설동점,제주특별자치도 제주시 신설동길 23,3961388.379,14087329.07
세븐일레븐제주,제주특별자치도 제주시 서광로28길 39-1,3961546.057,14085117.93
지에스25이도,제주특별자치도 제주시 고산동산5길 35,3961504.681,14085933.08
씨유제주이도남광점,제주특별자치도 제주시 오복4길 30,3961081.034,14086101.94
씨유제주연산홍점,제주특별자치도 제주시 승천로 8,3961446.875,14086185.46
씨유제주구남,제주특별자치도 제주시 구남동2길 27,3960398.68,14085846.8
씨유제주뉴,제주특별자치도 제주시 광양13길 2-1,3961659.339,14085382.27
씨유제주이도주공점,제주특별자치도 제주시 구남로 31,3960572.251,14085611.98
세븐일레븐제주연신로점,제주특별자치도 제주시 신설로11길 57,3961115.819,14087288.54
지에스25이도,제주특별자치도 제주시 연북로 706,3961127.147,14087666.91
씨유제주학사점,제주특별자치도 제주시 신성로13길 26,3961597.523,14085266.94
세븐일레븐제주이도정든점,제주특별자치도 제주시 정든로 20,3961475.648,14086433.02
세븐일레븐제주이도뉴타운점,제주특별자치도 제주시 구남동6길 6,3960352.979,14086188.81
레몬비이도1점,제주특별자치도 제주시 구남동6길 6,3960352.979,14086188.81
세븐제주이도제일점,제주특별자치도 제주시 동광로6길 11,3962001.851,14085516.4
지에스25이도,제주특별자치도 제주시 중앙로 376,3960325.475,14086286.21
세븐일레븐제주,제주특별자치도 제주시 남광북5길 12,3960988.605,14086033.76
지에스25제주동여중점,제주특별자치도 제주시 천수로 23,3962238.469,14086331.3
세븐일레븐제주이도남광로점,제주특별자치도 제주시 남광로 21,3960964.033,14086168.26
세븐일레븐제주제광점,제주특별자치도 제주시 서광로28길 15,3961736.749,14084902
세븐일레븐제주구남,제주특별자치도 제주시 구남동4길 38,3960202.263,14085998.08
씨유제주점,제주특별자치도 제주시 중앙로 238,3961654.52,14085297.28
씨유제주,제주특별자치도 제주시 동광로 24,3962086.488,14085458.91
씨유제주가령로점,제주특별자치도 제주시 가령골2길 7,3962422.348,14086141.83
세븐일레븐제주이도,제주특별자치도 제주시 청귤로3길 54,3962104.718,14086661.41
씨유제주신설동점,제주특별자치도 제주시 남광로 128,3961615.842,14087243.24
지에스25제주,제주특별자치도 제주시 남광로2길 39,3960473.108,14086344.03
세븐일레븐제주정든로점,제주특별자치도 제주시 정든로6길 11,3961651.961,14086731.23
지에스25제주청귤로점,제주특별자치도 제주시 청귤로 17,3961815.269,14086193.47
지에스25구남(상품권),제주특별자치도 제주시 구남동2길 47,3960274.273,14085644.92
세븐일레븐제주라마다시티점,제주특별자치도 제주시 중앙로 304,3960991.649,14085739.05
씨유제주구남점,제주특별자치도 제주시 구남동6길 46,3960169.724,14085824.86
씨유제주이도,제주특별자치도 제주시 신설로7길 31,3961097.479,14086925.84
씨유제주,제주특별자치도 제주시 남광로2길 11-2,3960699.14,14086158.8
오케이마트24,제주특별자치도 제주시 동고산로 18-1,3961653.911,14085593.18
지에스25이도타운점,제주특별자치도 제주시 신설로7길 50,3961186.608,14087101.88
세븐일레븐제주,제주특별자치도 제주시 구남동2길 47,3960274.273,14085644.92
GS25구남,제주특별자치도 제주시 구남동2길 47,3960274.273,14085644.92
씨유제주,제주특별자치도 제주시 연삼로 404,3961210.149,14085786.29
씨유제주,제주특별자치도 제주시 중앙로 319,3960896.718,14085918.86
세븐제주제광점,제주특별자치도 제주시 서광로28길 15,3961736.749,14084902
지에스25제주,제주특별자치도 제주시 오복4길 4,3961289.33,14085938.5
세븐제주고산로점,제주특별자치도 제주시 중앙로 247,3961583.856,14085406.09
GS25이도프라임점,제주특별자치도 제주시 중앙로 262,3961386.842,14085431.62
세븐제주이도아람점,제주특별자치도 제주시 중앙로 270-4,3961298.311,14085468.81
씨유제주이도노브힐점,제주특별자치도 제주시 남광로2길 48,3960374.921,14086378.95
세븐일레븐제주가령로점,제주특별자치도 제주시 가령로4길 1,3961404.832,14085596.68
세븐일레븐제주이도,제주특별자치도 제주시 광양7길 38,3962090.596,14085578.65
씨유제주,제주특별자치도 제주시 오복3길 14,3961501.746,14085810.94
세븐일레븐제주이도타운점,제주특별자치도 제주시 신설로7길 50,3961186.608,14087101.88
세븐제주문예회관점,제주특별자치도 제주시 동광로 82,3962440.262,14086046.94
씨유중앙여고,제주특별자치도 제주시 남광로4길 29,3960694.289,14086411.61
GS25이도서광점,제주특별자치도 제주시 서광로 288,3961872.305,14084955.2
씨유제주청귤로점,제주특별자치도 제주시 청귤로1길 50,3962049.002,14086295.61
씨유제주신삼도점,제주특별자치도 제주시 서광로 257,3961873.159,14084593.4
도림아스타,제주특별자치도 제주시 서사로 129,3961970.682,14084175.14
씨유제주삼도서사로점,제주특별자치도 제주시 서사로 48,3962961.641,14084117.94
씨유제주서광로점,제주특별자치도 제주시 서광로 254-1,3961808.956,14084564.37
씨유제주삼도점,제주특별자치도 제주시 서광로 197-1,3961882.364,14083891.28
CU제주전농로점,제주특별자치도 제주시 전농로 31,3962473.839,14083759.48
GS25제주유정점,제주특별자치도 제주시 서광로20길 12,3961677.035,14084344.62
지에스25삼도서광로점,제주특별자치도 제주시 서광로 219,3961874.314,14084169.32
세븐제주삼도서광점,제주특별자치도 제주시 홍랑길 7,3961935.223,14084472.73
세븐일레븐제주남성로점,제주특별자치도 제주시 남성로 119,3963065.035,14083941.56
씨유제주삼도,제주특별자치도 제주시 서사로13길 7,3962344.506,14084224.94
지에스25삼도동양점,제주특별자치도 제주시 홍랑길 20,3962064.681,14084520.01
씨유제주혜인한국,제주특별자치도 제주시 서광로 193,3961910.917,14083784.26
지에스25서사라점,제주특별자치도 제주시 서사로 100,3962324.809,14084110.21
씨유제주서광점,제주특별자치도 제주시 서광로 238,3961787.704,14084340.65
씨유제주서사라점,제주특별자치도 제주시 서사로18길 2,3962138.979,14084076.91
씨유제주시민점,제주특별자치도 제주시 중앙로 122,3962873.599,14084610.39
세븐일레븐제주정,제주특별자치도 제주시 남중서1길 28,3962717.692,14084565.88
지에스25제주무근성점,제주특별자치도 제주시 무근성길 36,3963862.695,14084081.19
지에스25제주관덕정점,제주특별자치도 제주시 관덕로 17,3963636.69,14084270.11
세븐일레븐전농로점,제주특별자치도 제주시 전농로 79,3962473.675,14084335.72
씨유제주중앙여중점,제주특별자치도 제주시 중앙로24길 27,3962617.01,14084427.13
씨유제주,제주특별자치도 제주시 서사로 35,3963093.639,14084173.58
씨유제주,제주특별자치도 제주시 서사로 59,3962797.443,14084167
씨유제주오리엔탈호텔점,제주특별자치도 제주시 탑동로 47,3964206.405,14084125.43
씨유제주무근성점,제주특별자치도 제주시 무근성7길 18,3963757.076,14084186.92
지에스25제주칼호텔점,제주특별자치도 제주시 중앙로 144,3962644.273,14084734.64
지에스25제주중앙여중점,제주특별자치도 제주시 서사로11길 5,3962643.114,14084232.68
세븐제주관덕로점,제주특별자치도 제주시 관덕로 38,3963593.285,14084517.53
씨유제주탑동로점,제주특별자치도 제주시 중앙로2길 15,3964093.963,14084511.64
GS25제주중앙여중점,제주특별자치도 제주시 서사로11길 5,3962643.114,14084232.68
GS25탑동공원점,제주특별자치도 제주시 탑동로 37,3964204.494,14084244.08
세븐제주북초교점,제주특별자치도 제주시 탑동로15길 47,3964038.677,14084349.47
씨유제주라마다호텔점,제주특별자치도 제주시 탑동로 66,3964378.292,14083939.66
세븐일레븐제주북초교점,제주특별자치도 제주시 탑동로15길 47,3964038.677,14084349.47
지에스25삼도관덕점,제주특별자치도 제주시 관덕로2길 15,3963413.326,14084222.95
지에스25제주,제주특별자치도 제주시 남성로 159,3963123.647,14084419.95
씨유제주북성로점,제주특별자치도 제주시 북성로 62-1,3963940.185,14083944.69
씨제이올리브영제주,제주특별자치도 제주시 탑동로 15-1,3964132.117,14084485.94
씨유제주관덕점,제주특별자치도 제주시 관덕로6길 7,3963506.021,14084391.77
씨유제주남일점,제주특별자치도 제주시 중앙로14길 30,3963345.74,14084294.6
삼광개발,제주특별자치도 제주시 탑동로 47,3964206.405,14084125.43
세븐일레븐제주,제주특별자치도 제주시 관덕로6길 20,3963367.091,14084356.6
GS25제주중앙여중점상품권,제주특별자치도 제주시 서사로11길 5,3962643.114,14084232.68
씨유제주항국제여객,제주특별자치도 제주시 임항로 191,3965004.203,14086725.12
비지에프리테일제주탑동,제주특별자치도 제주시 임항로 17,3964094.676,14084898.64
세븐일레븐제주산지로점,제주특별자치도 제주시 산지로 23-2,3963837.454,14085179.04
세븐일레븐제주산지로,제주특별자치도 제주시 산지로 23-2,3963837.454,14085179.04
씨유제주건입,제주특별자치도 제주시 만덕로 27,3963738.571,14085505.13
지에스25제주탑동,제주특별자치도 제주시 중앙로 21,3964043.747,14084704.06
씨유제주연안여객,제주특별자치도 제주시 임항로 111,3964533.875,14085731.18
씨유제주우당도서관점,제주특별자치도 제주시 사라봉동길 30,3963843.897,14087250.55
씨유제주건입미니점,제주특별자치도 제주시 동문로9길 7,3963689.481,14085269.79
세븐일레븐제주탑동,제주특별자치도 제주시 서부두길 10,3964149.699,14085042.84
씨유제주건입현대점,제주특별자치도 제주시 연무정길 20,3964143.773,14085981.1
씨유제주사라점,제주특별자치도 제주시 사라봉길 10,3963808.04,14086329.68
씨유제주여상점,제주특별자치도 제주시 동문로 95,3963737.506,14086023.94
씨유제주중학교점,제주특별자치도 제주시 서문로 49,3963376.71,14083768.2
지에스25제주용담점,제주특별자치도 제주시 용담로 113,3963293.253,14083489.03
세븐일레븐제주,제주특별자치도 제주시 서광로 171,3961892.056,14083560.51
씨유제주용담서문로점,제주특별자치도 제주시 서문로 12,3963119.057,14083345.35
세븐일레븐제주탑동,제주특별자치도 제주시 탑동로 110,3963839.227,14083787.98
지에스25남성로점,제주특별자치도 제주시 전농로 2,3962442.13,14083395.74
세븐일레븐제주용담,제주특별자치도 제주시 남성로 83-1,3962831.346,14083593.86
씨유제주남성점,제주특별자치도 제주시 남성로 47-1,3962469.908,14083318.67
GS25용담열린점,제주특별자치도 제주시 용남1길 1,3962921.001,14083634.51
레몬비탑아일랜드호텔점,제주특별자치도 제주시 용남1길 47,3962527,14083354.99
씨유용담미르점,제주특별자치도 제주시 용담로 138-1,3963045.487,14083669.88
씨유제주탑동서문점,제주특별자치도 제주시 탑동로 136,3963612.953,14083957.73
씨유제주용담,제주특별자치도 제주시 남성로2길 3,3962048.74,14083408.54
CU제주행복날개주유소점,제주특별자치도 제주시 용문로 12,3962532.421,14081650.16
씨유노블레스관광호텔점,제주특별자치도 제주시 월성로4길 19,3962014.764,14082305.71
씨유제주성화로점,제주특별자치도 제주시 성화로 15,3963371.624,14082497.09
씨유제주,제주특별자치도 제주시 용문로 125,3962673.883,14082856.92
씨유제주승진타운점,제주특별자치도 제주시 용문로 157,3963047.108,14083030.09
씨유제주월성로점,제주특별자치도 제주시 월성로 31,3962078.155,14082527.62
씨유제주용화점,제주특별자치도 제주시 용화로 37-2,3963186.84,14082787.28
세븐제주용담현대점,제주특별자치도 제주시 용담로 50-1,3963561.773,14082827.44
지에스25제주용화점,제주특별자치도 제주시 용화로 26,3963159.127,14082618.75
세븐일레븐제주롯데오토하우스점,제주특별자치도 제주시 용해로 92,3963053.911,14082085.92
세븐일레븐제주용담현대점,제주특별자치도 제주시 용담로 50-1,3963561.773,14082827.44
씨유제주공항국내선점,제주특별자치도 제주시 공항로 2,3962651.382,14081471.14
씨제이올리브영제주국제,제주특별자치도 제주시 공항로 2,3962651.382,14081471.14
씨유제주공항렌트카하우스점,제주특별자치도 제주시 공항로 2,3962651.382,14081471.14
세븐일레븐제주사대부고점,제주특별자치도 제주시 용담로 71,3963552.477,14083100.74
씨유제주용화,제주특별자치도 제주시 용화로4길 2,3963163.938,14082452.15
세븐제주공항에어사이드점,제주특별자치도 제주시 공항로 2,3962651.382,14081471.14
씨유제주사대부점,제주특별자치도 제주시 용담로 68,3963529.76,14083027.98
씨유제주공항국제선점,제주특별자치도 제주시 공항로 2,3962651.382,14081471.14
지에스25제주용흥점,제주특별자치도 제주시 용담로 89,3963500.945,14083283.59
씨유제주용해로점,제주특별자치도 제주시 용해로 47,3963591.947,14082250.72
씨유제주용,제주특별자치도 제주시 용두암길 16,3963799.565,14083290.11
GS25용담전망대점,제주특별자치도 제주시 서해안로 448,3964220.507,14080529.5
씨유제주서해안로점,제주특별자치도 제주시 서해안로 456-2,3964271.413,14080635.39
씨유제주용두,제주특별자치도 제주시 서해안로 658,3964017.718,14082725.06
지에스25용담해안로점,제주특별자치도 제주시 서해안로 510,3964458.813,14081185.05
씨유제주해안도로점,제주특별자치도 제주시 서해안로 626,3964066.884,14082379.29
씨유제주용담해안도로점,제주특별자치도 제주시 서해안로 516,3964500.94,14081267.11
씨유삼화주공점,제주특별자치도 제주시 화삼북로2길 12,3964065.841,14090395.06
장봐주는언니삼화점,제주특별자치도 제주시 화삼로 9,3963784.581,14090164.07
GS25화북주공점,제주특별자치도 제주시 동화로1길 49-9,3964304.844,14090529.59
지에스25제주삼화점,제주특별자치도 제주시 화삼북로2길 32,3963793.69,14090388
세븐일레븐제주화북주공점,제주특별자치도 제주시 동화로1길 9,3964472.299,14090189.41
세븐일레븐제주화북,제주특별자치도 제주시 일주동로 181,3964398.736,14089137.19
씨유제주화북진동점,제주특별자치도 제주시 진동로 7,3964498.32,14089546.81
씨유제주화북진남점,제주특별자치도 제주시 진남로 22,3964892.814,14088913.5
씨유제주일주동로점,제주특별자치도 제주시 일주동로 243,3964522.979,14089849.62
씨유화북주공점,제주특별자치도 제주시 동화로 7,3964446.473,14090062.75
지에스25화북진남점,제주특별자치도 제주시 진남로 33,3964961.835,14089028.78
집밥뚝딱삼화점,제주특별자치도 제주시 화삼북로2길 32,3963793.69,14090388
세븐일레븐제주화북공단점,제주특별자치도 제주시 선반로 69,3963907.309,14089203.86
씨유제주화북우정점,제주특별자치도 제주시 진남로 56,3964986.948,14089276.48
세븐화북중앙점,제주특별자치도 제주시 진남로6길 21,3964616.633,14089224.06
씨유화북,제주특별자치도 제주시 진남로6길 15,3964531.16,14089224.03
세븐일레븐제주화북진동점,제주특별자치도 제주시 진동로 33,3964795.755,14089466.03
세븐일레븐제주화북,제주특별자치도 제주시 진남로6길 21,3964616.633,14089224.06
씨유제주삼광충전소점,제주특별자치도 제주시 번영로 152,3962468.099,14088800.77
지에스25화북거로,제주특별자치도 제주시 거로남4길 37-1,3962748.943,14088829.24
씨유제주화북점,제주특별자치도 제주시 화남로 66,3963460.114,14088987.17
씨유제주거로길점,제주특별자치도 제주시 거로길 21,3963715.185,14088373.8
지에스25제주원당점(상품권),제주특별자치도 제주시 선사로8길 80,3965745.106,14092228.37
지에스25삼양포구점,제주특별자치도 제주시 서흘1길 28,3965704.022,14091864.63
세븐일레븐제주삼양서흘점,제주특별자치도 제주시 서흘2길 30,3965728.667,14092082.39
지에스25제주원당점,제주특별자치도 제주시 선사로8길 80,3965746.359,14092231.95
씨유삼양해수욕장점,제주특별자치도 제주시 선사로8길 14,3965267.523,14091639.26
세븐일레븐제주삼양해수욕장점,제주특별자치도 제주시 원당로5길 36,3965439.874,14091741.18
씨유제주삼양원당점,제주특별자치도 제주시 원당로 39,3965146.761,14091964.44
씨유제주선사로점,제주특별자치도 제주시 선사로8길 55-1,3965592.59,14091991.96
GS25제주원당점,제주특별자치도 제주시 선사로8길 80,3965745.106,14092228.37
씨유제주삼봉로점,제주특별자치도 제주시 삼봉로2길 64,3964467.131,14090950.35
지에스25제주삼양초교점,제주특별자치도 제주시 지석14길 15,3964496.82,14091447.21
씨유제주설촌로점,제주특별자치도 제주시 설촌로12길 23-1,3965154.719,14091138.71
지에스25삼양,제주특별자치도 제주시 선사로 31,3965089.636,14091484.7
씨유제주신,제주특별자치도 제주시 일주동로 379,3964717.182,14091451.41
씨유제주삼화,제주특별자치도 제주시 화삼로 167,3964417.666,14091381.18
편의점,제주특별자치도 제주시 화삼로 167,3964417.666,14091381.18
씨유제주,제주특별자치도 제주시 일주동로 326,3964675.606,14090790.54
세븐일레븐제주삼양,제주특별자치도 제주시 설촌로 16-1,3964930.214,14091008.75
씨유제주봉개,제주특별자치도 제주시 번영로 470,3960719.045,14092186
씨유제주명도암점,제주특별자치도 제주시 명림로 236,3957325.081,14094267.52
지에스GS라헨느리조트점,제주특별자치도 제주시 명림로 374,3955617.556,14094593.15
세븐일레븐제주번영로점,제주특별자치도 제주시 번영로 388,3961201.703,14091309.82
세븐일레븐제주봉개LH점,제주특별자치도 제주시 봉개대동6길 48-7,3960387.34,14092395.3
씨제이올리브영제주아라일동점,제주특별자치도 제주시 연북로 527,3959882.653,14085947.46
보손,제주특별자치도 제주시 산천단동1길 24,3955125.16,14088230.28
세븐일레븐제주아란길점,제주특별자치도 제주시 아란7길 1,3958419.248,14086954.81
집밥뚝딱아라초등학교점,제주특별자치도 제주시 중앙로 532,3958609.578,14086885.09
GS25제대,제주특별자치도 제주시 산천단동2길 20,3955150.731,14088425.08
씨유제주516교차로점,제주특별자치도 제주시 516로 3157,3955941.259,14087579.62
세븐일레븐제주대자연과학점,제주특별자치도 제주시 제주대학로 102,3956151.04,14089079.39
제주대학교소비자생활협동조합,제주특별자치도 제주시 제주대학로 102,3956151.04,14089079.39
씨유제주구산로점,제주특별자치도 제주시 구산로 28,3959596.045,14086187.43
세븐일레븐제주여중고점,제주특별자치도 제주시 구산로 46,3959710.42,14086361.9
씨유제주대점,제주특별자치도 제주시 산천단동3길 29,3955230.022,14088418
세븐제주대학교병원점,제주특별자치도 제주시 아란13길 15,3957481.971,14086953.5
GS25아라나래점,제주특별자치도 제주시 인다2길 75-1,3958032.703,14087531.42
지에스25아라스위첸점,제주특별자치도 제주시 아란9길 25,3958192.418,14086653.79
세븐일레븐제주아라점,제주특별자치도 제주시 인다2길 66,3958106.344,14087463.34
지에스25제주대원점,제주특별자치도 제주시 아연로 516,3958701.405,14085804.75
지에스25아라인다점,제주특별자치도 제주시 인다10길 42,3958422.123,14087502.06
씨유제주아라초교점,제주특별자치도 제주시 중앙로 530,3958628.657,14086872.84
씨유제주아란,제주특별자치도 제주시 아란15길 26,3957881.838,14086727.58
지에스25아라타운점,제주특별자치도 제주시 인다8길 8,3958664.312,14087012.47
씨유제주아라,제주특별자치도 제주시 인다10길 25,3958468.807,14087313.39
씨유제주대공과대점,제주특별자치도 제주시 제주대학로 64-29,3955998.741,14088249.34
세븐일레븐제주대학,제주특별자치도 제주시 중앙로 616,3957683.056,14087136.31
지에스25제주아란점,제주특별자치도 제주시 아란2길 31,3958465.362,14086470.34
장봐주는언니제주점,제주특별자치도 제주시 인다10길 30,3958426.273,14087369.07
씨유제주아라,제주특별자치도 제주시 인다14길 22,3958034.786,14087251.17
씨유제주대경,제주특별자치도 제주시 제주대학로 102,3956151.04,14089079.39
세븐일레븐제주아라,제주특별자치도 제주시 아란8길 16,3958334.457,14086829.04
케이제이,제주특별자치도 제주시 아란13길 15,3957481.971,14086953.5
씨유제주아라,제주특별자치도 제주시 아란8길 5,3958298.682,14086937.33
지에스25아라,제주특별자치도 제주시 아란2길 79,3957917.766,14086545.05
지에스25제주구남점,제주특별자치도 제주시 구남동8길 50,3959963.77,14085897.22
지에스25제주아라점,제주특별자치도 제주시 중앙로 576,3958123.389,14086963.72
세븐일레븐제주아라미화점,제주특별자치도 제주시 아란12길 24,3957770.418,14086846.49
씨유제주아라방선문점,제주특별자치도 제주시 아연로 531,3958883.603,14085925.55
씨유제주아라중점,제주특별자치도 제주시 간월동로 33,3960110.737,14087016.26
지에스25신이도,제주특별자치도 제주시 승천로 80,3960753.912,14086713.83
픽미픽미아이스제주아라점,제주특별자치도 제주시 인다1길 20,3958858.927,14087504.38
세븐일레븐아라중점,제주특별자치도 제주시 간월동로 16,3959961.847,14086868.62
씨유제주탐라점,제주특별자치도 제주시 신설로 36,3960916.747,14086825.35
지에스25제주간드락점,제주특별자치도 제주시 간월동로 10,3959921.082,14086793.73
씨유제주프로빌아파트점,제주특별자치도 제주시 금월길 46,3959799.702,14087661.38
씨유제주캠퍼스점,제주특별자치도 제주시 제주대학로 105-1,3956562.372,14088726.49
지에스25아라디오파크점,제주특별자치도 제주시 금월길 21,3960094.698,14087587.82
GS25아라,제주특별자치도 제주시 아봉로 83,3959001.134,14087777.86
지에스25제대,제주특별자치도 제주시 제주대학로 113,3956568.632,14088830.58
씨유제주,제주특별자치도 제주시 서광로 166,3961829.602,14083485.93
씨유제주공설로점,제주특별자치도 제주시 공설로 33-1,3961500.766,14083885.92
아름다운편의점,제주특별자치도 제주시 오라로 136,3961089.582,14083830.68
씨유제주신성로점,제주특별자치도 제주시 신성로 10,3961281.989,14084240.01
지에스25한라체육관점,제주특별자치도 제주시 서광로4길 10,3961740.541,14083486
지에스25제주오남로점,제주특별자치도 제주시 오남로6길 31,3960545.322,14083977.36
씨유제주정실점,제주특별자치도 제주시 아연로 171,3957995.232,14082950.15
세븐일레븐제주정실점,제주특별자치도 제주시 아연로 145,3958195.035,14082705.39
지에스25오라,제주특별자치도 제주시 연사2길 30,3960051.39,14083353.16
지에스25오라연미점,제주특별자치도 제주시 연사길 91,3960215.171,14083027.43
제주광어가공유통센터,제주특별자치도 제주시 연삼로 166,3960857.696,14083020.64
씨유제주아연로점,제주특별자치도 제주시 아연로 114,3958293.156,14082335.14
씨유제주연북로점,제주특별자치도 제주시 연북로 260,3959326.682,14082914.36
세븐일레븐제주오라,제주특별자치도 제주시 오라남로 14-14,3956619.084,14083296.69
씨유제주월정사점,제주특별자치도 제주시 아연로 216,3957487.195,14083095.12
GS25오라연미점,제주특별자치도 제주시 연사길 91,3960215.171,14083027.43
씨유제주오라로점,제주특별자치도 제주시 동성길 58,3961269.617,14082877
씨유제주오라,제주특별자치도 제주시 서광로 54,3961715.9,14082196.19
씨유제주월랑초교점,제주특별자치도 제주시 남녕로 66,3960928.607,14079627.36
지에스25노형월광점,제주특별자치도 제주시 월광로 25,3959748.07,14077917.47
GS25제주수덕점,제주특별자치도 제주시 수덕5길 40,3959878.663,14079097.7
씨제이올리브영제주한라대점,제주특별자치도 제주시 한라대학로 37,3958957.032,14079185.42
씨유제주광평점,제주특별자치도 제주시 광평동로 20,3959474.01,14078667.66
세븐일레븐제주노형,제주특별자치도 제주시 정존15길 5,3959972.97,14079454.44
GS25정든,제주특별자치도 제주시 달마루길 20-1,3960524.947,14079021.17
지에스25제주진군점,제주특별자치도 제주시 진군3길 16,3958893.432,14079605.52
세븐일레븐제주노형,제주특별자치도 제주시 진군3길 27,3958863.737,14079468.23
GS25제주일고점,제주특별자치도 제주시 진군1길 13,3959034.364,14079779.52
세븐일레븐제주신비로점,제주특별자치도 제주시 1100로 2894-49,3955184.545,14080515.58
씨유노형,제주특별자치도 제주시 노형로 349,3959474.012,14078993.43
씨유제주노형길점,제주특별자치도 제주시 노형5길 15,3959303.671,14079273.78
지에스25제주원,제주특별자치도 제주시 원노형3길 34,3960096.215,14079979.65
GS25노형신비,제주특별자치도 제주시 한라대학로 99,3958725.04,14079773.25
세븐일레븐제주노형한신점,제주특별자치도 제주시 도령로 54,3960348.652,14080207.15
지에스25노형,제주특별자치도 제주시 노형4길 17,3959407.414,14079291.43
씨유제주원,제주특별자치도 제주시 원노형3길 1,3960044.763,14080327.75
GS25월산,제주특별자치도 제주시 월산남길 19,3958087.722,14078006.57
씨유노형,제주특별자치도 제주시 노형10길 23,3959640.22,14079656.92
레몬비노형초교점,제주특별자치도 제주시 수덕5길 41,3959836.449,14079091.13null
세븐일레븐제주노형,제주특별자치도 제주시 다랑곶길 36,3960366.432,14079860.73
세븐일레븐제주노형,제주특별자치도 제주시 과원북2길 18,3959027.819,14080153.28
지에스노형,제주특별자치도 제주시 다랑곶길 19,3960254.5,14079695.87
씨유제주에코미르점,제주특별자치도 제주시 원노형4길 1,3959973.306,14079968.26
지에스25한라대학점,제주특별자치도 제주시 한라대학로 72,3958673.721,14079474.59
씨유제주정원로점,제주특별자치도 제주시 정원로 35,3959012.004,14079486.43
씨유제주한라,제주특별자치도 제주시 진군남4길 9,3958611.451,14079740.17
씨유제주정한점,제주특별자치도 제주시 원노형8길 22,3959736.546,14080152.56
세븐일레븐제주노형,제주특별자치도 제주시 노연로 25,3960025.619,14080007.03
씨유노형프레스티지점,제주특별자치도 제주시 도령로 24,3960136.365,14079927.56
씨유제주에코,제주특별자치도 제주시 노연로 30,3959972.429,14080072.48
GS25노형라자점상품권,제주특별자치도 제주시 월랑로 13,3960127.781,14079425.83
세븐일레븐제주우평로점,제주특별자치도 제주시 우평로 11,3959068.296,14078004.12
GS25노형서광,제주특별자치도 제주시 진군1길 4,3959070.447,14079860.43
GS25노형현대점,제주특별자치도 제주시 원노형로 84,3959361.861,14080203.52
세븐제주노형오거리점,제주특별자치도 제주시 노연로 25,3960025.619,14080007.03
세븐일레븐제주원,제주특별자치도 제주시 1100로 3324,3959592.209,14079828.89
씨유제주남녕점,제주특별자치도 제주시 월랑로4길 35,3960488.577,14079737.98
씨유중흥S점,제주특별자치도 제주시 한라대학로 107,3958834.327,14079841.12
씨유제주진군,제주특별자치도 제주시 진군중길 27,3958755.689,14079648.25
세븐일레븐노형메르헨점,제주특별자치도 제주시 연북로 45,3959484.973,14080393.36
GS25노형한빛점,제주특별자치도 제주시 원노형남1길 8,3959715.238,14079848.65
GS25노형현대점상품권,제주특별자치도 제주시 원노형로 84,3959361.861,14080203.52
지에스25노형조이점,제주특별자치도 제주시 월랑로10길 2,3960394.489,14079314.14
GS25노형,제주특별자치도 제주시 노형11길 12,3959716.908,14079471.35
레몬비,제주특별자치도 제주시 노연로 34,3959956.2,14080114.64
GS25노형라자점,제주특별자치도 제주시 월랑로 13,3960127.781,14079425.83
씨유제주,제주특별자치도 제주시 과원북4길 11,3959370.317,14080041.71
세븐제주노형메르헨점,제주특별자치도 제주시 연북로 45,3959484.973,14080393.36
GS25노형대림시티점,제주특별자치도 제주시 원노형남1길 17,3959739.785,14079963.28
씨유제주1100도로점,제주특별자치도 제주시 주르레길 1,3955196.875,14080371.73
지에스25노형라자점,제주특별자치도 제주시 월랑로 13,3960127.781,14079425.83
지에스리테일GS25제주,제주특별자치도 제주시 도령로 31,3960239.956,14079934.44
세븐일레븐제주월랑점,제주특별자치도 제주시 월랑로10길 26,3960572.653,14079481.62
씨유제주노형세방점,제주특별자치도 제주시 정존5길 9,3959650.205,14079027.98
세븐일레븐제주노형파크점,제주특별자치도 제주시 원노형6길 32,3959623.457,14079990.12
세븐일레븐제주노형백두점,제주특별자치도 제주시 원노형로 26,3960049.269,14080224.67
지에스25노형광평점,제주특별자치도 제주시 광평동로 13,3959388.878,14078688.07
씨유노형해오름점,제주특별자치도 제주시 과원북4길 39,3959357.019,14080447.91
지에스25노형현대점,제주특별자치도 제주시 원노형로 84,3959361.861,14080203.52
씨유제주신하와이점,제주특별자치도 제주시 도령로 40,3960245.069,14080118.82
GS25노형런던점,제주특별자치도 제주시 다랑곶6길 51,3960675.733,14079535.22
씨유제주에코아바점,제주특별자치도 제주시 원노형3길 40,3960098.594,14079895.78
씨유제주월랑점,제주특별자치도 제주시 남녕로 43-1,3960690.109,14079694.32
지에스25노형,제주특별자치도 제주시 노형로 407,3959965.306,14079506.06
씨유제주새길,제주특별자치도 제주시 수덕9길 65,3959728.598,14078795.67
지에스25노형,제주특별자치도 제주시 원노형남2길 39,3959556.78,14080284.53
씨유노형해오름점,제주특별자치도 제주시 과원북4길 39,3959357.019,14080447.91
세븐노형센터점,제주특별자치도 제주시 정존15길 5,3959972.97,14079454.44
GS25노형에비뉴점,제주특별자치도 제주시 연북로 21,3959509.422,14080091.19
씨유뉴메르헨점,제주특별자치도 제주시 연북로 41,3959501.149,14080347.61
지에스25노형,제주특별자치도 제주시 노형로 379,3959726.877,14079249.63
씨유제주정든점,제주특별자치도 제주시 월랑로 47,3960455.782,14079145.55
씨유제주월랑북길점,제주특별자치도 제주시 월랑북1길 3,3960690.927,14079178.05
지에스25노형이화점,제주특별자치도 제주시 원노형로 3,3960271.819,14080137.6
씨제이올리브영제주월랑로점,제주특별자치도 제주시 월랑로 43,3960408.258,14079186.97
세븐일레븐제주노형벽강점,제주특별자치도 제주시 원노형로 35-2,3959873.836,14080324.24
지에스25제주노형중점,제주특별자치도 제주시 노형5길 42,3959143.003,14079067.73
씨유제주월광점,제주특별자치도 제주시 광평중길 1,3959821.932,14078110.41
씨유제주광평중길점,제주특별자치도 제주시 광평중길 66,3959237.127,14078353.75
지에스25외도월대점,제주특별자치도 제주시 도근내길 24,3960832.969,14074514.07
씨제이올리브영제주외도점,제주특별자치도 제주시 우정로 79,3959933.697,14074253.29
지에스25외도우정점,제주특별자치도 제주시 일주서로 7326,3960881.004,14074110.88
씨유제주일주서로점,제주특별자치도 제주시 일주서로 7312,3960853.244,14073947.2
씨유제주외도,제주특별자치도 제주시 우정로8길 20,3960441.371,14074006.1
세븐일레븐제주외도해피점,제주특별자치도 제주시 우정로5길 8,3960550.808,14074318.27
지에스25외도,제주특별자치도 제주시 우정로16길 30,3960004.688,14073856.98
세븐일레븐제주외도,제주특별자치도 제주시 우정로11길 12,3960211.001,14074367.7
GS25제주우령점,제주특별자치도 제주시 우령서로 20,3960604.267,14073718.58
지에스25외도타운점,제주특별자치도 제주시 우정로6길 12,3960586.436,14074049.43
씨유외도절물점,제주특별자치도 제주시 우정로5길 22,3960524.512,14074488.75
지에스25외도,제주특별자치도 제주시 우령8길 23,3960395.8,14073858.27
지에스25외도해담은점,제주특별자치도 제주시 우정로7길 25,3960440.053,14074553.51
GS25제주우령점상품권,제주특별자치도 제주시 우령서로 20,3960604.267,14073718.58
씨유제주외도점,제주특별자치도 제주시 우정로 58,3960215.802,14074208.33
세븐일레븐제주해밀마루점,제주특별자치도 제주시 우정로15길 48,3960385.5,14074447.72
씨유제주외도한라점,제주특별자치도 제주시 우령서로 47,3960263.532,14073786
지에스25제주우령점,제주특별자치도 제주시 우령서로 20,3960604.267,14073718.58
씨유제주외도초교점,제주특별자치도 제주시 일주서로 7360,3960978.715,14074522.66
씨유외도일주점,제주특별자치도 제주시 일주서로 7269,3960825.056,14073439.75
초심,제주특별자치도 제주시 일주서로 7360,3960978.715,14074522.66
씨유이호테우,제주특별자치도 제주시 테우해안로 172,3961442.875,14076573.64
GS25이호해수욕장점,제주특별자치도 제주시 서해안로 24,3961838.563,14077118.81
씨유제주이호,제주특별자치도 제주시 서해안로 60,3962166.721,14077091.19
GS25제주이호점,제주특별자치도 제주시 일주서로 7519,3961186.717,14076345.06
씨유제주도리로점,제주특별자치도 제주시 도리로 59,3961730.491,14077296.5
유로에프앤아이,제주특별자치도 제주시 도리로 17,3961375.035,14076945.99
GS25이호현사점,제주특별자치도 제주시 테우해안로 142,3961512.662,14076251.57
씨유제주이호,제주특별자치도 제주시 일주서로 7525,3961211.608,14076399.79
씨유제주이호오광점,제주특별자치도 제주시 오광로 109,3960063.269,14077507.99
지에스25제주,제주특별자치도 제주시 대동길 2,3961093.339,14077828.18
세븐일레븐제주에스호텔점,제주특별자치도 제주시 오일장중길 26,3961245.457,14078753.09
세븐일레븐제주도두점,제주특별자치도 제주시 도두항서길 59,3962496.377,14077890.17
씨유제주도두,제주특별자치도 제주시 서해안로 146,3962216.703,14078022.47
세븐일레븐제주해안도로점,제주특별자치도 제주시 서해안로 228,3962978.128,14078640.23
GS25제주중앙,제주특별자치도 제주시 월랑로 91,3960855.544,14078783.77
씨유도두항점,제주특별자치도 제주시 서해안로 164,3962393.605,14078182.79
지에스25제주월랑점,제주특별자치도 제주시 월랑로 93,3960860.876,14078788.67
씨유제주아모렉스리조트점,제주특별자치도 제주시 서해안로 216,3962853.629,14078604.92
씨유제주도두점,제주특별자치도 제주시 도공로 2,3962681.299,14078022.82
세븐제주해안도로점,제주특별자치도 제주시 서해안로 228,3962984.145,14078640.14
씨유제주도두교차로점,제주특별자치도 제주시 일주서로 7705,3961084.929,14078558.99
세븐일레븐제주도두봉점,제주특별자치도 제주시 서해안로 191,3962613.565,14078405.98
GS25제주도두점,제주특별자치도 제주시 서해안로 160,3962348.566,14078148.71
뉴-호프세븐일레븐제주공항서로점,제주특별자치도 제주시 다호5길 16,3962114.269,14080790.06
씨유제주메르블루점,제주특별자치도 제주시 서해안로 368,3963367.649,14080159.68
제주로감성편의점,제주특별자치도 제주시 오일장중길 128,3961827.437,14079696.91
지에스도두해안로점,제주특별자치도 제주시 서해안로 301-1,3963075.354,14079436.71
씨유도남,제주특별자치도 제주시 신성로 35,3961381.26,14084533.28
CU제주KBS점,제주특별자치도 제주시 청사로 13,3960536.276,14084185.91
세븐일레븐제주도남로점,제주특별자치도 제주시 도남로 3,3961795.486,14084716.69
지에스25제주도남대로점,제주특별자치도 제주시 연삼로 317,3960844.507,14084870.29
씨유제주도남점,제주특별자치도 제주시 독짓골8길 4,3960916.783,14085466.99
지에스25도남,제주특별자치도 제주시 도남로 86,3960912.006,14085046.61
씨유도남,제주특별자치도 제주시 도남로 37,3961431.96,14084881.15
씨유제주청사로점,제주특별자치도 제주시 도남로16길 24,3960615.96,14084962.15
GS25도남방선문점,제주특별자치도 제주시 복지로 72,3960149.481,14084739.97
씨유제주복지로점,제주특별자치도 제주시 복지로북길 37,3960407.635,14084615.34
지에스25도남수선화,제주특별자치도 제주시 독짓골4길 15,3960702.164,14085353.82
지에스25도남성환점,제주특별자치도 제주시 신성로 84,3961280.588,14085068.96
씨유도남,제주특별자치도 제주시 도남로 63,3961152.259,14085015.67
지에스25제주도남점,제주특별자치도 제주시 도남로17길 3,3960536.061,14085182.48
씨유제주해모루점,제주특별자치도 제주시 연삼로 295-1,3960875.811,14084618.3
씨유제주수,제주특별자치도 제주시 독짓골2길 9,3960706.222,14085216.02
지에스25도련,제주특별자치도 제주시 도련길 22,3963063.914,14091679.91
GS25도련해피점,제주특별자치도 제주시 삼봉로 230,3962084.67,14092423.94
씨유제주삼화부영6차점,제주특별자치도 제주시 화삼로 107,3963967.663,14091309.41
씨제이올리브영제주삼화점,제주특별자치도 제주시 건주로 37,3964009.505,14090937.41
씨유제주도련블루힐점,제주특별자치도 제주시 삼봉로 167,3962759.034,14092094.97
세븐일레븐제주번영,제주특별자치도 제주시 번영로 345,3961527.068,14090989.16
씨유제주삼화아빌로스점,제주특별자치도 제주시 건주로4길 6-4,3964032.506,14090859.21
지에스25도련해피점,제주특별자치도 제주시 삼봉로 230,3962084.67,14092423.94
세븐일레븐제주삼화,제주특별자치도 제주시 건주로4길 10-3,3964039.778,14090775.24
씨제이올리브영제주삼화점,제주특별자치도 제주시 건주로 60,3963732.889,14090868.09
세븐일레븐도련점,제주특별자치도 제주시 삼봉로 312,3961227.768,14092337.26
세븐일레븐제주건주로점,제주특별자치도 제주시 건주로 66,3963664.238,14090865.43
토프플러스,제주특별자치도 제주시 건주로4길 6-1,3964009.045,14090816.4
씨유제주도련,제주특별자치도 제주시 도련길 1,3963088.441,14091889.24
지에스25삼화지구점,제주특별자치도 제주시 건주로6길 58,3963790.247,14090837.35
지에스25제주도련,제주특별자치도 제주시 삼봉로 120,3963289.857,14091830.2
도련마을상회,제주특별자치도 제주시 도련안길 9-10,3963117.857,14091663.6
GS25도련해피점상품권,제주특별자치도 제주시 삼봉로 230,3962084.67,14092423.94
씨유제주도련,제주특별자치도 제주시 연삼로 978,3963879.344,14091892.92
지에스25한화리조트제주점,제주특별자치도 제주시 명림로 575-107,3955053.301,14097211.86
씨유제주새가름점,제주특별자치도 제주시 중산간동로 174,3961982.561,14094038.98
씨유제주한북로점,제주특별자치도 제주시 한북로 165,3956920.025,14085668.1
씨유제주,제주특별자치도 제주시 아연로 429,3958519.356,14084848.03
세븐일레븐제주오등점,제주특별자치도 제주시 오등4길 1,3957420.088,14084371.39
지에스25제주난타파크점,제주특별자치도 제주시 선돌목동길 56-26,3954629.179,14087255.43
지에스25아라골프클럽점,제주특별자치도 제주시 한북로 244-1,3956303.78,14086241.92
씨유제주월평,제주특별자치도 제주시 아봉로 367,3957833.361,14090241.81
동새미,제주특별자치도 제주시 월평5길 2,3957862.018,14090313.27
레몬B월평로점,제주특별자치도 제주시 월평5길 1,3957846.659,14090246.42
GS25제주,제주특별자치도 제주시 첨단로 217,3955580.177,14089900.21
183편의점,제주특별자치도 제주시 제주대학로 183,3956943.986,14089524.71
레몬비세미양점,제주특별자치도 제주시 첨단로 330,3954164.083,14089875.28
씨유제주영평점,제주특별자치도 제주시 연신로 264,3959424.953,14088658.28
지에스25아라영평점,제주특별자치도 제주시 기와4길 14-3,3959442.2,14088514.31
씨유제주벤처오름점,제주특별자치도 제주시 첨단로 199,3955799.548,14089931.93
포스하우징,제주특별자치도 제주시 516로 2870,3954221.731,14089694.92
GS25연동신광점,제주특별자치도 제주시 도령로 76,3960501.053,14080424.13
씨유제주신광점,제주특별자치도 제주시 성신로 20,3960742.303,14080298.45
GS25제주도청,제주특별자치도 제주시 신대로 63,3960738.274,14081588.56
씨유제주,제주특별자치도 제주시 일주서로 7850,3960988.692,14080276.91
GS25연동상품권,제주특별자치도 제주시 사장길 26,3959640.225,14081384
GS25N제주포병점,제주특별자치도 제주시 삼동길 34,3958892.413,14081427.12
GS25N제주복지단점,제주특별자치도 제주시 삼동길 34,3958892.413,14081427.12
세븐일레븐제주연동국기점,제주특별자치도 제주시 국기로3길 4,3959012.687,14080928.37
GS25제주과원점,제주특별자치도 제주시 과원로 51,3958723.89,14080679.85
씨유신제주점,제주특별자치도 제주시 삼무로 62,3960470.944,14081163.6
씨유제주과원점,제주특별자치도 제주시 과원로 28,3958670.644,14080412.36
씨유제주그랜드점,제주특별자치도 제주시 노연로 73,3960008.935,14080592.97
GS25연동,제주특별자치도 제주시 사장길 26,3959640.225,14081384
세븐일레븐제주연동길점,제주특별자치도 제주시 연동13길 33,3960068.873,14081319.13
세븐일레븐제주에어시티호텔점,제주특별자치도 제주시 삼무로 56,3960472.389,14081097.71
GS25N제주구일점,제주특별자치도 제주시 삼동길 34,3959023.295,14081325.83
세븐일레븐제주연중로점,제주특별자치도 제주시 연동11길 25,3960189.654,14081184.44
지에스25연동신라점,제주특별자치도 제주시 노연로 61,3960014.068,14080450.36
씨유제주,제주특별자치도 제주시 과원북2길 48,3959017.88,14080542.66
세븐일레븐제주에코블루점,제주특별자치도 제주시 연북로 98,3959383.063,14080994.87
지에스25연동베스트점,제주특별자치도 제주시 성신로1길 30,3960793.038,14080640.29
GS25제주연중점,제주특별자치도 제주시 연동13길 9,3960368.713,14081332.77
씨유제주연동,제주특별자치도 제주시 노연로 145,3959977.001,14081455.8
세븐일레븐제주삼무파크점,제주특별자치도 제주시 도령로 128,3960882.753,14080932.46
세븐일레븐제주가이아호텔점,제주특별자치도 제주시 연동7길 4,3960448.772,14080881.25
씨유제주국기점,제주특별자치도 제주시 국기로2길 27,3959286.822,14081078.9
세븐제주연동문화점,제주특별자치도 제주시 귀아랑길 19,3960757.21,14081649.38
세븐일레븐제주글로스터호텔점,제주특별자치도 제주시 삼무로 57,3960535.006,14081100.39
세븐제주연동도호점,제주특별자치도 제주시 연동12길 13,3959798.367,14081170.92
GS25연동베스트점,제주특별자치도 제주시 성신로1길 30,3960793.038,14080640.29
세븐일레븐제주연동이타스점,제주특별자치도 제주시 신광로 88,3959756.419,14080770.29
씨유제주삼무공원점,제주특별자치도 제주시 삼무로3길 50,3960581.224,14080886.52
GS25연동베스트점상품권,제주특별자치도 제주시 성신로1길 30,3960793.038,14080640.29
세븐일레븐제주연동도호점,제주특별자치도 제주시 연동12길 13,3959798.367,14081170.92
씨유제주연문로점,제주특별자치도 제주시 연문2길 3,3960919.497,14081802.76
지에스25연동바다,제주특별자치도 제주시 제원길 14,3960352.652,14080726.93
세븐일레븐제주연동,제주특별자치도 제주시 귀아랑길 19,3960757.21,14081649.38
세븐일레븐제주연동노연점,제주특별자치도 제주시 노연로 101,3959994.534,14080924.95
세븐일레븐제주삼무점,제주특별자치도 제주시 삼무로9길 35,3960588.942,14081333.19
GS25N구이예비점,제주특별자치도 제주시 종천길 60,3957701.035,14082074.19
씨제이올리브영제주나인몰점,제주특별자치도 제주시 과원로 128,3959281.996,14081325.69
씨유연동대로점,제주특별자치도 제주시 연삼로 12,3960985.503,14081211.27
지에스25제주연오로점,제주특별자치도 제주시 연오로 4,3960909.456,14082105.96
지에스25연동달그네,제주특별자치도 제주시 노연로 96,3959951.393,14080854.91
씨제이올리브영제주한라,제주특별자치도 제주시 도령로 73,3960540.908,14080351.69
지에스25엔제주탐라,제주특별자치도 제주시 삼동길 34,3958892.413,14081427.12
씨유제주제원어반점,제주특별자치도 제주시 삼무로 18,3960469.597,14080659.35
씨유제주연오로점,제주특별자치도 제주시 연오로 108,3959635.741,14082069.15
GS25연동서강점,제주특별자치도 제주시 신대로16길 43,3960085.99,14081007.47
씨유제주연미길점,제주특별자치도 제주시 연미길 97-8,3959905.365,14082157.51
지에스리테일GS25N제주탐라점,제주특별자치도 제주시 삼동길 34,3959023.295,14081325.83
씨유제주연동,제주특별자치도 제주시 신광로 103,3959571.795,14080817.28
세븐일레븐제주한림고점,제주특별자치도 제주시 노연로 129,3959986.085,14081253.25
씨유제주삼무로점,제주특별자치도 제주시 신대로8길 17,3960764.798,14081343.82
GS25연동국기점,제주특별자치도 제주시 국기로3길 11,3959099.653,14080951.07
세븐일레븐제주연동디오션점,제주특별자치도 제주시 연동10길 19,3959737.303,14081026.88
세븐제주에코블루점,제주특별자치도 제주시 연북로 98,3959383.063,14080994.87
레몬비더오크라호텔점,제주특별자치도 제주시 신광로4길 38,3960405.198,14080370.42
세븐일레븐제주연동,제주특별자치도 제주시 도령로 131,3960941.377,14080908.86
씨유제주연화점,제주특별자치도 제주시 연화로1길 32,3958935.622,14080842.06
씨유제주연동베라체점,제주특별자치도 제주시 연동10길 36,3959555.133,14080994.78
지에스25한라,제주특별자치도 제주시 도령로 65,3960559.764,14080242.41
씨유제주한일시티점,제주특별자치도 제주시 도령로 103,3960736.559,14080645.9
세븐일레븐제주로얄점,제주특별자치도 제주시 신대로12길 41,3960342.937,14081050.47
GS25연동,제주특별자치도 제주시 신광로 16,3960616.042,14080798.57
세븐일레븐제주더,제주특별자치도 제주시 연동6길 5,3959924.536,14080746.3
GS25N비행점,제주특별자치도 제주시 아연로 62-8,3958853.112,14081620.51
지에스25연동모디움점,제주특별자치도 제주시 삼무로1길 10-9,3960575.107,14080632.67
세븐일레븐제주연동,제주특별자치도 제주시 은남길 30,3960139.16,14081435.5
지에스25제주연북점,제주특별자치도 제주시 과원북4길 82,3959307.178,14080824.7
씨유제주도청,제주특별자치도 제주시 신대로13길 1,3960242.627,14081599.3
지에스25제주남녕점,제주특별자치도 제주시 남녕로 28,3960571.001,14079860.15
씨유제주도청점,제주특별자치도 제주시 선덕로3길 44,3960316.654,14081890.49
세븐일레븐제주연동에스제이점,제주특별자치도 제주시 삼무로 16,3960488.497,14080635.13
세븐일레븐제주신대로점,제주특별자치도 제주시 신대로 149,3959725.729,14081554.04
지에스25제주메종글래드호텔점,제주특별자치도 제주시 노연로 80,3959936.895,14080686.24
세븐일레븐제주연동,제주특별자치도 제주시 연화로2길 1,3958861.561,14080549.71
GS25N제주특전점,제주특별자치도 제주시 아연로 62-8,3958853.112,14081620.51
씨유제주연동아랑점,제주특별자치도 제주시 신대로18길 16,3959827.208,14081333.4
GS25연동,제주특별자치도 제주시 연동7길 35,3960090.502,14080904.4
GS25N제주구삼점,제주특별자치도 제주시 아연로 62-8,3958853.112,14081620.51
지에스25제주아로마점,제주특별자치도 제주시 연동10길 5,3959878.203,14081034.43
세븐일레븐제주연동풀하우스점,제주특별자치도 제주시 연동8길 29,3959615.231,14080907.68
한림개발,제주특별자치도 제주시 노연로 129,3959986.085,14081253.25
GS25연동해피점,제주특별자치도 제주시 제원길 43,3960014.821,14080748.59
CU제주제성점,제주특별자치도 제주시 제성1길 16,3961185.112,14079966.21
씨유제주스카이점,제주특별자치도 제주시 노연로 117-1,3959990.163,14081120.24
지에스25연동,제주특별자치도 제주시 사장길 26,3959640.225,14081384
씨유제주열린점,제주특별자치도 제주시 삼무로 11,3960551.529,14080583.9
씨유제주용천점,제주특별자치도 제주시 신광로10길 30,3959722.939,14080455.78
씨유제주신광새길점,제주특별자치도 제주시 성신북길 19,3960855.638,14080066.83
지에스25연동은수길점,제주특별자치도 제주시 수목원길 23,3957776.901,14080509.15
씨유제주삼동점,제주특별자치도 제주시 삼동길 20,3958934.499,14081177.41
세븐제주마리나호텔점,제주특별자치도 제주시 귀아랑길 5,3960899.343,14081658.11
지에스25신제주점,제주특별자치도 제주시 선덕로 6,3959922.929,14081626.66
씨유제주제원점,제주특별자치도 제주시 신광로 45,3960258.047,14080840.89
씨유제주제성,제주특별자치도 제주시 일주서로 7837,3961051.277,14080113.09
씨유제주크라운점,제주특별자치도 제주시 신광로 94,3959682.98,14080767.76
지에스25한라수목원점,제주특별자치도 제주시 수목원길 65-6,3957927.599,14081024.29
세븐일레븐제주연미,제주특별자치도 제주시 연오로 95,3959815.728,14082116.87
집밥뚝딱한라초등학교점,제주특별자치도 제주시 연화로 39,3958957.432,14080523.17
세븐일레븐제주연동마이빌점,제주특별자치도 제주시 신대로22길 25,3959475.734,14081078.57
레몬비파크사이드호텔점,제주특별자치도 제주시 도령로 126,3960844.877,14080893.48
GS25N제주구이점,제주특별자치도 제주시 아연로 62-8,3958853.112,14081620.51
세븐제주삼무점,제주특별자치도 제주시 삼무로9길 35,3960588.942,14081333.19
지에스25제주그랜드점,제주특별자치도 제주시 연동4길 28,3959661.834,14080556.08
세븐제주연동북타운점,제주특별자치도 제주시 노연로 131,3959984.168,14081286.82
씨유제주은남점,제주특별자치도 제주시 연동11길 21,3960254.658,14081185.89
GS25연동누리안,제주특별자치도 제주시 신대로 144,3959786.076,14081483.71
준25편의점,제주특별자치도 제주시 연화중길 9,3958921.231,14080680.59
씨유제주디오션시티점,제주특별자치도 제주시 신대로18길 47,3959785.388,14080941.15
씨유제주다들점,제주특별자치도 제주시 도령로15길 8,3960943.097,14080779.46
지에스25제주중앙중점,제주특별자치도 제주시 선덕로5길 32,3960096.377,14081886.47
세븐일레븐제주현대오피스텔점,제주특별자치도 제주시 도령로 87,3960639.423,14080504.77
지에스2525연동,제주특별자치도 제주시 과원북4길 73,3959350.343,14080731.86
GS25N제주항공지원점,제주특별자치도 제주시 삼동길 34,3958892.413,14081427.12
세븐일레븐제주더호텔점,제주특별자치도 제주시 삼무로 74,3960467.005,14081306.2
레몬비로얄호텔점,제주특별자치도 제주시 신대로12길 45,3960327.713,14080996.79
세븐제주연중로점,제주특별자치도 제주시 연동11길 25,3960189.654,14081184.44
세븐일레븐제주연동이타스점,제주특별자치도 제주시 신광로 88,3959756.419,14080770.29
레몬비어반아일랜드호텔점,제주특별자치도 제주시 삼무로 76,3960465.035,14081336.17
지에스25제주신대로점,제주특별자치도 제주시 선덕로4길 22,3959688.726,14081740.22
씨유제주연동점,제주특별자치도 제주시 신대로20길 56,3959713.113,14080853.56
지에스25연동에코티엘점,제주특별자치도 제주시 신광로4길 24,3960404.131,14080544.12
지에스25제주바오젠점,제주특별자치도 제주시 신광로 21,3960540.908,14080845.18
지에스25연동,제주특별자치도 제주시 연동9길 26,3960189.58,14081014.36
씨유제주트리플시티점,제주특별자치도 제주시 연북로 106,3959341.362,14081188.3
지에스25크라운점,제주특별자치도 제주시 삼무로3길 26,3960590.056,14081161.88
지에스25연동삼무점,제주특별자치도 제주시 삼무로 47,3960536.014,14081004.56
레몬비위플스테이호텔점,제주특별자치도 제주시 도령로 102,3960650.298,14080672.31
씨유제주제원,제주특별자치도 제주시 제원3길 25,3960172.826,14080444.46
씨유제주연동,제주특별자치도 제주시 은남4길 37,3960014.78,14080992.93
세븐일레븐제주도평점,제주특별자치도 제주시 도평길 80,3959044.676,14076581.68
지에스25제주월산타운점,제주특별자치도 제주시 월산북길 46,3958622.483,14077557.99
씨유제주외도도평점,제주특별자치도 제주시 대통길 123,3959608.56,14075990.04
씨유제주서부,제주특별자치도 제주시 노형로 2,3956606.923,14076165.23
지에스25제주서부관광점,제주특별자치도 제주시 노형로 39,3956919.994,14076505.43
세븐일레븐제주해안,제주특별자치도 제주시 해안마을서4길 105,3955546.394,14076517.42
씨유제주샹그릴라호텔점,제주특별자치도 제주시 해안마을북길 14-6,3957122.411,14076767.06
세븐일레븐제주평화로점,제주특별자치도 제주시 노형로 121,3957524.125,14077162.26
지에스25제주,제주특별자치도 제주시 해안마을길 43,3956456.677,14076816.43
레몬비펄리호텔점,제주특별자치도 제주시 노형로 79,3957096.536,14076887.18
씨유서부관광점,제주특별자치도 제주시 노형로 41,3956935.917,14076524.35
씨유제주서부휴게소점,제주특별자치도 제주시 노형로 89,3957179.005,14076931.46
씨유제주내도,제주특별자치도 제주시 테우해안로 62,3961362.501,14075390.14
세븐일레븐제주인호텔점,제주특별자치도 제주시 신산마을길 20,3960768.107,14075876.95
7일레븐,제주특별자치도 제주시 한림읍 한림해안로 139,3950574.081,14055346.62
세븐일레븐제주한림,제주특별자치도 제주시 한림읍 한림서길 38,3949703.06,14055241.45
씨유한림상로점,제주특별자치도 제주시 한림읍 한림상로 186,3950513.549,14056254.74
지에스25한림월광점,제주특별자치도 제주시 한림읍 일주서로 5876,3954327.473,14058977.21
세븐한림편의점,제주특별자치도 제주시 한림읍 한림로 656,3950391.468,14055569.85
세븐일레븐제주한림해안로점,제주특별자치도 제주시 한림읍 한림해안로 484-1,3953306.651,14056528.07
세븐일레븐제주귀덕,제주특별자치도 제주시 한림읍 귀덕로 14,3954217.722,14059177.73
씨유제주한림항점,제주특별자치도 제주시 한림읍 한림해안로 160,3950717.59,14055587.17
지에스25협재,제주특별자치도 제주시 한림읍 한림로 374,3947962.653,14053336.96
씨유제주귀덕점,제주특별자치도 제주시 한림읍 한수풀로 339,3951069.806,14059273.36
GS25한림초교점,제주특별자치도 제주시 한림읍 한림로4길 27,3949921.922,14055530.99
지에스25제주협재점,제주특별자치도 제주시 한림읍 한림로 330,3947577.191,14053006.05
씨유제주귀덕해안도로점,제주특별자치도 제주시 한림읍 한림해안로 662,3954153.601,14057700.37
GS25한림오일장점,제주특별자치도 제주시 한림읍 한수풀로 56,3950975.107,14056174.09
씨유한림고림동점,제주특별자치도 제주시 한림읍 중산간서로 4512,3945102.248,14058010.52
지에스25한림항점,제주특별자치도 제주시 한림읍 한림해안로 143,3950614.35,14055381.86
지에스25금능,제주특별자치도 제주시 한림읍 금능길 92,3947038.981,14052175.27
지에스25금악중앙,제주특별자치도 제주시 한림읍 중산간서로 4287,3942886.405,14059032.27
씨유제주금능,제주특별자치도 제주시 한림읍 한림로 242,3946890.797,14052225.63
지에스25한림귀덕,제주특별자치도 제주시 한림읍 한림해안로 592-1,3953937.623,14057152.07
세븐일레븐한림로점,제주특별자치도 제주시 한림읍 한림로 362,3947865.851,14053228.51
씨유제주수원포구점,제주특별자치도 제주시 한림읍 한림해안로 272,3951913.759,14055716.9
세븐일레븐제주못,제주특별자치도 제주시 한림읍 한림중앙로 281,3947607.767,14057185.79
씨유제주명월점,제주특별자치도 제주시 한림읍 명월로 86,3946607.199,14055929.39
GS25옹포,제주특별자치도 제주시 한림읍 한림로 475,3948781.511,14054202.64
GS25한림옹포점,제주특별자치도 제주시 한림읍 한림로 494,3948950.947,14054341
씨유협재,제주특별자치도 제주시 한림읍 한림로 329-8,3947679.723,14052956.47
씨유제주금악점,제주특별자치도 제주시 한림읍 한창로 1288,3942736.474,14059413.82
세븐일레븐제주아덴힐점,제주특별자치도 제주시 한림읍 화전길 82,3941522.781,14067327.04
씨유한림,제주특별자치도 제주시 한림읍 한림로 626,3950164.425,14055294.8
지에스25협재,제주특별자치도 제주시 한림읍 한림로 349,3947799.947,14053099.21
레몬비협재,제주특별자치도 제주시 한림읍 한림로 349-5,3947749.723,14053043.82
씨유제주금능점,제주특별자치도 제주시 한림읍 금능길 64,3946941.128,14051864.68
세븐일레븐제주한림일주점,제주특별자치도 제주시 한림읍 일주서로 5294,3948774.515,14056003.54
지에스25한림금능점,제주특별자치도 제주시 한림읍 한림로 224,3946732.772,14052051.24
씨유한림,제주특별자치도 제주시 한림읍 한림중앙로 23,3950210.755,14055763.13
씨유제주금능길점,제주특별자치도 제주시 한림읍 한림로 203,3946716.834,14051821.82
세븐일레븐제주한림한수풀점,제주특별자치도 제주시 한림읍 한림상로 229,3951010.509,14056062.21
세븐일레븐제주협재돌집점,제주특별자치도 제주시 한림읍 한림로 318,3947471.122,14052918.1
씨유제주한림점,제주특별자치도 제주시 한림읍 한림로 698,3950768.7,14055767.03
씨유제주한림한수점,제주특별자치도 제주시 한림읍 한림로 734,3951216.86,14055675.81
씨유켄싱턴리조트제주점,제주특별자치도 제주시 한림읍 한림해안로 530,3953286.136,14056812.09
세븐일레븐제주월림점,제주특별자치도 제주시 한림읍 중산간서로 3877,3941826.379,14054751.77
씨유(제주협재점),제주특별자치도 제주시 한림읍 한림로 387-1,3948133.658,14053426.21
세븐일레븐제주한림점,제주특별자치도 제주시 한림읍 한림로 691,3950714.148,14055740.41
세븐일레븐제주한림읍사무소점,제주특별자치도 제주시 한림읍 한림상로 146,3950069.824,14056106.52
씨유한림,제주특별자치도 제주시 한림읍 한림로 661,3950447.561,14055616.79
레몬비귀덕점,제주특별자치도 제주시 한림읍 일주서로 5850,3954202.375,14058684.77
세븐일레븐제주한림,제주특별자치도 제주시 한림읍 한림해안로 116,3950316.607,14055192.94
세븐일레븐제주한림,제주특별자치도 제주시 한림읍 한림중앙로 35,3950068.323,14055801.39
지에스25제주한수풀점,제주특별자치도 제주시 한림읍 한림로 708,3950923.16,14055728.56
세븐일레븐제주장전점,제주특별자치도 제주시 애월읍 중산간서로 6132,3955544.208,14069368.59
레몬비시드니호텔점,제주특별자치도 제주시 애월읍 애월해안로 945,3959682.459,14070350.21
지에스25제주(상품권),제주특별자치도 제주시 애월읍 고성남길 28,3953097.048,14073692.86
GS25제주곽지점,제주특별자치도 제주시 애월읍 곽지3길 19,3955037.11,14060221.47
지에스25제주하가타운점,제주특별자치도 제주시 애월읍 하가로 152,3956086.75,14065101.38
지에스25한담애월점,제주특별자치도 제주시 애월읍 애월로 11,3956525.426,14060904.93
씨유제주씨앤블루점,제주특별자치도 제주시 애월읍 애월해안로 576,3958903.291,14066928.66
세븐일레븐제주빌레리조트점,제주특별자치도 제주시 애월읍 고내로13길 79,3958042.554,14064931.53
씨유제주신엄점,제주특별자치도 제주시 애월읍 애월해안로 494,3958975.075,14065992.2
지에스애월베니키아점,제주특별자치도 제주시 애월읍 애월해안로 554-10,3958821.028,14066672.47
GS25뉴제주하귀점,제주특별자치도 제주시 애월읍 하귀9길 50,3959576.228,14072512.45
지에스25제주애월점,제주특별자치도 제주시 애월읍 애월로 113,3957151.459,14061820.4
세븐일레븐제주납읍점,제주특별자치도 제주시 애월읍 중산간서로 5446,3953143.927,14062429.52
레몬비애월고내점,제주특별자치도 제주시 애월읍 애월해안로 232,3957464.062,14063743.24
아르본유스호스텔편의점,제주특별자치도 제주시 애월읍 평화로 2482,3952650.405,14072951.49
쇠질곳휴게마트,제주특별자치도 제주시 애월읍 엄장로 87,3957503.227,14068482.14
지에스25애월가문동점,제주특별자치도 제주시 애월읍 애월해안로 926,3959669.097,14070109.68
씨유제주하귀주공점,제주특별자치도 제주시 애월읍 하광로 50,3959429.535,14072362.57
지에스25제주공룡랜드점,제주특별자치도 제주시 애월읍 하광로 515-2,3954594.078,14074224.59
씨유제주곽지해수욕장점,제주특별자치도 제주시 애월읍 곽지9길 5-1,3955441.35,14060594.43
GS25제주애월중점,제주특별자치도 제주시 애월읍 애월로 151,3957038.088,14062247.3
지에스25제주관광대점,제주특별자치도 제주시 애월읍 평화로 2727,3954911.828,14074794.48
씨유제주애월점,제주특별자치도 제주시 애월읍 애월로 121,3957135.363,14061940.4
씨유제주하가리연꽃점,제주특별자치도 제주시 애월읍 하가로 167-2,3955899.524,14065052.86
세븐일레븐제주신엄리점,제주특별자치도 제주시 애월읍 중엄안3길 7-15,3958492.716,14067749.43
GS25다인리조트,제주특별자치도 제주시 애월읍 애월해안로 400-9,3958047.049,14065363.76
지에스25곽지,제주특별자치도 제주시 애월읍 곽지1길 28,3954998.46,14060138.29
씨제이올리브영제주하귀점,제주특별자치도 제주시 애월읍 하귀로 121,3959751.07,14071752.85
GS25제주곽지점상품권,제주특별자치도 제주시 애월읍 곽지3길 19,3955037.11,14060221.47
세븐일레븐제주소길리점,제주특별자치도 제주시 애월읍 장소로 255,3952508.37,14068587.17
세븐일레븐제주광령,제주특별자치도 제주시 애월읍 광성로 305,3956663.745,14075224.43
지에스25제주하귀점,제주특별자치도 제주시 애월읍 일주서로 7143,3959994.853,14072112.04
지에스25애월수산점,제주특별자치도 제주시 애월읍 하소로 174,3957352.109,14069976.5
지에스25애월모닝시티점,제주특별자치도 제주시 애월읍 하귀9길 2,3960045.166,14072410.71
무수천마트,제주특별자치도 제주시 애월읍 광성로 348,3956617.233,14075730.42
씨유제주납읍점,제주특별자치도 제주시 애월읍 중산간서로 5478-2,3953387.079,14062666.22
GS25제주애월고점,제주특별자치도 제주시 애월읍 일주서로 6372,3956813.301,14063523.72
세븐일레븐제주애월리점,제주특별자치도 제주시 애월읍 애월로 89,3957158.988,14061543.67
씨유제주하귀,제주특별자치도 제주시 애월읍 하귀9길 25,3959847.993,14072578.99
씨유제주곽지,제주특별자치도 제주시 애월읍 일주서로 6078,3955600.584,14060696.01
지에스25애월신엄,제주특별자치도 제주시 애월읍 애월해안로 464,3958791.958,14065675.33
세븐일레븐제주센추리호텔점,제주특별자치도 제주시 애월읍 일주서로 7113,3959838.168,14071782.66
세븐일레븐제주애월한담점,제주특별자치도 제주시 애월읍 애월로1길 24-5,3956940.852,14060782.06
GS25제주,제주특별자치도 제주시 애월읍 고성남길 28,3953097.048,14073692.86
지에스25제주,제주특별자치도 제주시 애월읍 고성남길 28,3953097.048,14073692.86
씨유제주광령,제주특별자치도 제주시 애월읍 광령중길 133-3,3955109.22,14074882.51
레몬비애월점,제주특별자치도 제주시 애월읍 애월해안로 852,3960349.905,14069550.62
7-ELEVEN제주애월,제주특별자치도 제주시 애월읍 중산간서로 6617,3957053.736,14074840.22
씨유제주애월항점,제주특별자치도 제주시 애월읍 애월해안로 99,3957365.091,14062382.14
레몬비코쿤애월점,제주특별자치도 제주시 애월읍 중엄3길 52,3958903.576,14067632.84
씨유제주천덕로점,제주특별자치도 제주시 애월읍 천덕로 45,3954477.688,14060801.58
세븐일레븐제주상가,제주특별자치도 제주시 애월읍 중산간서로 5678,3955123.293,14064201.95
지에스25스마일비치점,제주특별자치도 제주시 애월읍 금성5길 42-15,3954959.745,14059831.25
지에스25R제주예,제주특별자치도 제주시 애월읍 평화로 2144,3949828.911,14070024.02
씨유제주신엄중점,제주특별자치도 제주시 애월읍 일주서로 6705,3958125.4,14067268.96
씨유제주평화로점,제주특별자치도 제주시 애월읍 하광로 533,3954404.35,14074324.41
씨유제주애월수산점,제주특별자치도 제주시 애월읍 하소로 160,3957544.189,14070027.42
엠지편의점,제주특별자치도 제주시 애월읍 평화로 2175,3950343.867,14070125
지에스25서부일주로점,제주특별자치도 제주시 애월읍 일주서로 6545,3957468.029,14065493.84
지에스25제주곽지점,제주특별자치도 제주시 애월읍 곽지3길 19,3955037.11,14060221.47
씨유제주무수천점,제주특별자치도 제주시 애월읍 중산간서로 6703,3956718.136,14075720.54
씨유제주애월,제주특별자치도 제주시 애월읍 애월해안로 956,3959542.952,14070432.6
GS25R제주구관람대2점,제주특별자치도 제주시 애월읍 평화로 2144,3949828.911,14070024.02
세븐일레븐제주관광대점,제주특별자치도 제주시 애월읍 광령평화3길 20-16,3954892.954,14074580.46
세븐일레븐제주애월,제주특별자치도 제주시 애월읍 일주서로 6288,3956777.181,14062553.23
지에스25제주봉성점,제주특별자치도 제주시 애월읍 어림비로 2,3951037.871,14061067.84
GS25제주신엄점,제주특별자치도 제주시 애월읍 일주서로 6733,3958250.839,14067593.93
지에스25제주토비스점,제주특별자치도 제주시 애월읍 애월로1길 8,3956916.581,14061063.84
씨유하귀,제주특별자치도 제주시 애월읍 하귀로 74,3959369.124,14071329.91
씨유제주고내리점,제주특별자치도 제주시 애월읍 일주서로 6516,3957339.144,14065182.15
지에스25뉴제주하귀점,제주특별자치도 제주시 애월읍 하귀9길 50,3959576.228,14072512.45
씨유제주광상로점,제주특별자치도 제주시 애월읍 광상로 395,3954269.012,14069818.05
씨유제주동양콘도점,제주특별자치도 제주시 애월읍 애월해안로 708,3959532.1,14068272.17
GS25신엄포구점,제주특별자치도 제주시 애월읍 애월해안로 416,3958332.54,14065536.48
씨유제주구엄,제주특별자치도 제주시 애월읍 애월해안로 686,3959448.903,14068031.53
지에스25엘리시안점,제주특별자치도 제주시 애월읍 평화로 1738-116,3944705.819,14068553.71
지에스25제주귀일중점,제주특별자치도 제주시 애월읍 항몽로 34,3959271.292,14071384.11
씨유제주애월포구점,제주특별자치도 제주시 애월읍 애월해안로 390,3958242.48,14065245.71
세븐일레븐제주상가리점,제주특별자치도 제주시 애월읍 애원로 515,3952423.99,14065526.73
세븐일레븐제주베니키아호텔점,제주특별자치도 제주시 애월읍 애월해안로 554-10,3958821.028,14066672.47
세븐일레븐제주아이바가든점,제주특별자치도 제주시 애월읍 고성남서길 8,3952994.189,14073177.31
레몬비하귀카페점,제주특별자치도 제주시 애월읍 하귀로 121,3959751.07,14071752.85
레몬비아르본리조트점,제주특별자치도 제주시 애월읍 평화로 2482,3952650.405,14072951.49
세븐일레븐제주하귀점,제주특별자치도 제주시 애월읍 하귀로 24,3959176.574,14070783.14
세븐일레븐제주곽지점,제주특별자치도 제주시 애월읍 일주서로 5989,3954704.302,14060243.63
레몬비곽지,제주특별자치도 제주시 애월읍 곽지3길 27,3955110.526,14060150.84
지에스25탐라스테이점,제주특별자치도 제주시 애월읍 애월해안로 881,3960084.728,14069831.39
GS25뉴제주하귀점상품권,제주특별자치도 제주시 애월읍 하귀9길 50,3959576.228,14072512.45
지에스25제주평화로점,제주특별자치도 제주시 애월읍 광령평화2길 5,3954228.751,14074324.65
세븐일레븐제주유수암점,제주특별자치도 제주시 애월읍 유수암평화길 242,3951656.977,14071687.07
씨유제주고내올레점,제주특별자치도 제주시 애월읍 애월해안로 246,3957421.399,14063933.12
씨유제주하귀점,제주특별자치도 제주시 애월읍 하귀로 37,3959231.579,14070916.44
씨유제주광령2리점,제주특별자치도 제주시 애월읍 하광로 472,3955057.81,14074029.66
레몬비곽지,제주특별자치도 제주시 애월읍 곽지9길 23,3955346.19,14060439.13
세븐일레븐제주하귀일주점,제주특별자치도 제주시 애월읍 일주서로 7187,3960231.301,14072621.08
레몬비헤브론힐리조트점,제주특별자치도 제주시 애월읍 고성남서길 76,3952175.678,14073285.43
씨유제주중엄점,제주특별자치도 제주시 애월읍 애월해안로 612,3958917.033,14067341.62
씨유제주애월한담점,제주특별자치도 제주시 애월읍 애월로 37,3956810.062,14061023.65
씨유제주장전점,제주특별자치도 제주시 애월읍 장전4길 2,3955291.902,14069464.67
세븐일레븐제주상귀중앙,제주특별자치도 제주시 애월읍 애조로 236,3958244.735,14071760.25
씨유제주유수암길점,제주특별자치도 제주시 애월읍 유수암평화5길 15-24,3951564.52,14071383.28
GS25R제주신관람대2점,제주특별자치도 제주시 애월읍 평화로 2144,3949828.911,14070024.02
세븐일레븐제주장전,제주특별자치도 제주시 애월읍 장전로 26,3955512.507,14068648.33
레몬비곽지중앙,제주특별자치도 제주시 애월읍 곽지3길 27,3955110.526,14060150.84
씨유제주애월가문동점,제주특별자치도 제주시 애월읍 가문동길 41-14,3959928.742,14069860.15
씨유제주봉성점,제주특별자치도 제주시 애월읍 녹근로 3,3950883.908,14061064.34
세븐일레븐제주애월천덕점,제주특별자치도 제주시 애월읍 천덕로 397,3951527.718,14063696.54
세븐일레븐제주거문덕이점,제주특별자치도 제주시 애월읍 하소로 594,3952666.857,14070502.25
지에스25제주세화,제주특별자치도 제주시 구좌읍 해맞이해안로 1440,3965161.276,14121893.47
씨유제주세화포구점,제주특별자치도 제주시 구좌읍 세평항로 49,3965557.483,14121467.3
씨유제주에코비자림점,제주특별자치도 제주시 구좌읍 비자림로 2235-2,3961189.756,14116212.02
GS25월정,제주특별자치도 제주시 구좌읍 월정7길 52-1,3969248.457,14114918.67
씨유제주동복점,제주특별자치도 제주시 구좌읍 동복로 34,3968970.598,14105280.58
씨유제주김녕해수욕장점,제주특별자치도 제주시 구좌읍 해맞이해안로 7-6,3969484.457,14110846.1
씨유제주한동교차로점,제주특별자치도 제주시 구좌읍 일주동로 2806,3967088.558,14118206.04
세븐일레븐제주송당,제주특별자치도 제주시 구좌읍 중산간동로 2231,3958147.903,14113244.36
지에스25김녕,제주특별자치도 제주시 구좌읍 김녕로 4,3969125.266,14108536.82
씨제이올리브영제주세화점,제주특별자치도 제주시 구좌읍 일주동로 3126,3964833.607,14121223.61
씨유제주,제주특별자치도 제주시 구좌읍 일주동로 3715,3960926.489,14125764.72
세븐일레븐제주평대해안로점,제주특별자치도 제주시 구좌읍 해맞이해안로 1162,3966521.735,14119724.9
씨유제주블루스프링점,제주특별자치도 제주시 구좌읍 일주동로 1845,3969412.249,14107387.33
세븐일레븐제주월정해안로점,제주특별자치도 제주시 구좌읍 행원로1길 33,3969179.204,14115280.29
씨유제주하도점,제주특별자치도 제주시 구좌읍 문주란로 7,3964343.054,14124576.95
지에스25제주구좌점,제주특별자치도 제주시 구좌읍 구좌로 8,3964990.185,14121121.23
최경운부동산,제주특별자치도 제주시 구좌읍 해맞이해안로 1451,3965161.991,14122067.22
지에스25제주비자숲길점,제주특별자치도 제주시 구좌읍 다랑쉬북로 37,3960946.791,14116538.23
씨유제주김녕리점,제주특별자치도 제주시 구좌읍 김녕로 110,3969126.605,14109735.53
지에스25대천교차로점,제주특별자치도 제주시 구좌읍 비자림로 1219,3953253.602,14108080.92
GS25제주비자림점,제주특별자치도 제주시 구좌읍 비자림로 2279,3961405.343,14116643.21
덕천연수원,제주특별자치도 제주시 구좌읍 중산간동로 1941,3959393.174,14110304.96
씨유제주번영로점,제주특별자치도 제주시 구좌읍 번영로 1980,3953438.797,14107882.35
세븐일레븐제주한동,제주특별자치도 제주시 구좌읍 한동로 34,3966773.314,14118015.43
세븐일레븐제주종달리점,제주특별자치도 제주시 구좌읍 일주동로 3653,3961682.775,14125581.8
세븐일레븐제주김녕점,제주특별자치도 제주시 구좌읍 김녕로 127,3969221.446,14109909.41
씨유제주김녕,제주특별자치도 제주시 구좌읍 김녕로 157,3969313.683,14110266.73
씨유제주월정모살점,제주특별자치도 제주시 구좌읍 월정7길 62-1,3969283.562,14114830.75
세븐일레븐제주행원,제주특별자치도 제주시 구좌읍 일주동로 2592,3967954.421,14115797.83
씨유제주평대,제주특별자치도 제주시 구좌읍 일주동로 2973,3965773.936,14119717.65
GS25제주세화점,제주특별자치도 제주시 구좌읍 구좌로 77-1,3964700.001,14121878.15
씨유제주세화리점,제주특별자치도 제주시 구좌읍 일주동로 3151,3964711.885,14121537.7
세븐일레븐제주세화점,제주특별자치도 제주시 구좌읍 세화2길 11,3964871.127,14121567.11
씨유제주송당,제주특별자치도 제주시 구좌읍 중산간동로 2281-2,3958039.142,14113818.08
세븐일레븐제주덕,제주특별자치도 제주시 구좌읍 중산간동로 1909,3959397.802,14109890.49
씨유제주세화,제주특별자치도 제주시 구좌읍 구좌로 49,3964961.096,14121646.41
지에스25송당,제주특별자치도 제주시 구좌읍 비자림로 1814,3957896.728,14112658.08
세븐일레븐제주월정리점,제주특별자치도 제주시 구좌읍 월정1길 2,3968839.577,14114351.61
씨유제주김녕교차로점,제주특별자치도 제주시 구좌읍 일주동로 1998,3968696.885,14109059.84
씨유제주세화,제주특별자치도 제주시 구좌읍 해맞이해안로 1426,3965225.817,14121741.77
세븐일레븐제주행원해안로점,제주특별자치도 제주시 구좌읍 해맞이해안로 584-2,3969373.94,14116078.83
씨유제주해녀박물관점,제주특별자치도 제주시 구좌읍 구좌로 118,3964648.498,14122338.86
프리하우스세븐일레븐제주와산리점,제주특별자치도 제주시 조천읍 함와로 562,3961041.82,14101961.12
세븐일레븐제주교래,제주특별자치도 제주시 조천읍 비자림로 648,3953362.312,14101578.16
GS25함덕교차로점,제주특별자치도 제주시 조천읍 함덕로 2,3967245.304,14101319.24
세븐일레븐제주함덕신북로점,제주특별자치도 제주시 조천읍 신북로 481-3,3967675.407,14099936.61
레몬비와흘점,제주특별자치도 제주시 조천읍 남조로 2446,3959463.964,14099055.05
함덕일주동로점,제주특별자치도 제주시 조천읍 일주동로 1091,3966793.3,14099420.61
씨유제주남조로점,제주특별자치도 제주시 조천읍 남조로 2115,3955794.955,14099934.51
씨유제주조천,제주특별자치도 제주시 조천읍 조천16길 2,3966887.556,14097515
비금면도고리편의점,제주특별자치도 제주시 조천읍 북선로 100-48,3966004.934,14102340.48
세븐일레븐제주,제주특별자치도 제주시 조천읍 신북로 255,3966936.888,14097420.88
씨유제주함덕,제주특별자치도 제주시 조천읍 함와로 23,3966943.842,14101379.4
씨유제주함덕신북점,제주특별자치도 제주시 조천읍 신북로 505,3967552.281,14100192.28
세븐제주상온센터,제주특별자치도 제주시 조천읍 와흘로 241,3959782.692,14097571.72
씨유제주사리탑교차로점,제주특별자치도 제주시 조천읍 조천우회로 223,3965574.517,14096736.44
씨유제주동부휴게소점,제주특별자치도 제주시 조천읍 번영로 1619,3956162.34,14104600.8
세븐일레븐제주함덕일주점,제주특별자치도 제주시 조천읍 일주동로 1091,3966793.3,14099420.61
프리하우스,제주특별자치도 제주시 조천읍 함와로 562,3961041.82,14101961.12
레몬비교래,제주특별자치도 제주시 조천읍 남조로 1845-1,3952827.975,14101175.54
세븐일레븐제주선흘점,제주특별자치도 제주시 조천읍 선교로 202,3959905.862,14104151.84
지에스25제주와흘점,제주특별자치도 제주시 조천읍 남조로 2188,3956610.392,14099919.27
씨유제주함덕해수욕장점,제주특별자치도 제주시 조천읍 함덕로 40,3967520.199,14100971.76
씨유제주해밀타운점,제주특별자치도 제주시 조천읍 신북로 460,3967674.471,14099678.93
지에스25함덕골든튤립점,제주특별자치도 제주시 조천읍 조함해안로 504,3967520.098,14100497.13
지에스25남조로점,제주특별자치도 제주시 조천읍 남조로 1732,3951563.407,14101594.96
씨유제주,제주특별자치도 제주시 조천읍 신북로 214,3966572.217,14097068.5
지에스25제주함덕,제주특별자치도 제주시 조천읍 조함해안로 530,3967532.315,14100790.62
씨유제주,제주특별자치도 제주시 조천읍 신흥로 2,3967715.364,14099027.58
세븐일레븐제주북촌점,제주특별자치도 제주시 조천읍 일주동로 1574,3968669.852,14104346.94
씨유제주유블레스호텔점,제주특별자치도 제주시 조천읍 조함해안로 502,3967521.562,14100424
씨유제주함덕길점,제주특별자치도 제주시 조천읍 함덕12길 46-1,3966933.371,14100286.51
국제리더스,제주특별자치도 제주시 조천읍 조함해안로 321-21,3968740.854,14098895.65
씨유제주곱은달점,제주특별자치도 제주시 조천읍 함와로 302,3963662.386,14101604.44
씨유제주,제주특별자치도 제주시 조천읍 일주동로 1602,3968820.324,14104629.16
GS25제주,제주특별자치도 제주시 조천읍 함덕13길 2,3967401.064,14100604.12
씨유제주와흘점,제주특별자치도 제주시 조천읍 중산간동로 456,3962236.49,14097015.01
씨유제주교래점,제주특별자치도 제주시 조천읍 비자림로 684,3953351.368,14101851.24
지에스25신촌포구점,제주특별자치도 제주시 조천읍 신촌북2길 33,3966891.331,14095259.41
씨유제주신촌동수동점,제주특별자치도 제주시 조천읍 신조로 32,3964181.347,14095628.4
GS25교래퐁낭점,제주특별자치도 제주시 조천읍 남조로 1773,3951976.964,14101303.65
씨유제주함덕,제주특별자치도 제주시 조천읍 신북로 643,3967297.807,14101751.24
늘푸름개발,제주특별자치도 제주시 조천읍 신북로 443,3967762.203,14099387.74
씨에스,제주특별자치도 제주시 조천읍 번영로 957,3958651.711,14097398.42
지에스25함덕코업시티점,제주특별자치도 제주시 조천읍 조함해안로 474,3967639.163,14100113.26
씨유제주대흘점,제주특별자치도 제주시 조천읍 중산간동로 782,3960974.851,14100401.13
씨유제주,제주특별자치도 제주시 조천읍 신촌3길 1,3966285.429,14095149.99
세븐일레븐제주조천우회로점,제주특별자치도 제주시 조천읍 조천우회로 710,3966004.863,14102523.83
씨유제주북촌점,제주특별자치도 제주시 조천읍 북촌14길 1-2,3968505.827,14104040.93
GS25함덕라마다점,제주특별자치도 제주시 조천읍 신북로 474,3967637.842,14099825.63
지에스25조천상록점,제주특별자치도 제주시 조천읍 조천북4길 33,3967290.139,14097454.62
씨유제주신촌누리점,제주특별자치도 제주시 조천읍 신북로 75,3966501.691,14095475.5
세븐일레븐제주번영로휴게점,제주특별자치도 제주시 조천읍 번영로 1484,3957199.402,14103360.49
세븐제주저온센터,제주특별자치도 제주시 조천읍 와흘로 241,3959782.692,14097571.72
세븐일레븐제주와산리점,제주특별자치도 제주시 조천읍 함와로 562,3961041.82,14101961.12
씨유제주동부관광점,제주특별자치도 제주시 조천읍 일주동로 952-3,3966482.295,14097828.29
씨제이올리브영제주,제주특별자치도 제주시 조천읍 조함해안로 522,3967532.252,14100692.34
세븐일레븐제주함덕삼다점,제주특별자치도 제주시 조천읍 조함해안로 488,3967566.626,14100277.2
지에스25제주교래점,제주특별자치도 제주시 조천읍 비자림로 658,3953444.726,14101627.4
지에스25제주대흘점,제주특별자치도 제주시 조천읍 중산간동로 700,3961559.495,14099636.56
CU제주와산리점,제주특별자치도 제주시 조천읍 중산간동로 849,3960762.006,14101162.1
씨유제주함덕캠프점,제주특별자치도 제주시 조천읍 조함해안로 574,3967724.965,14101163.31
레몬비선흘휴게소점,제주특별자치도 제주시 조천읍 번영로 1656,3955804.543,14104848.3
세븐일레븐제주대섬점,제주특별자치도 제주시 조천읍 신북로 103,3966644.113,14095772.03
씨유제주함와로점,제주특별자치도 제주시 조천읍 함와로 63,3966473.841,14101535.19
씨유제주고산점,제주특별자치도 제주시 한경면 용고로 86,3935356.509,14046244.88
씨유제주저지,제주특별자치도 제주시 한경면 녹차분재로 607,3938243.056,14055397.2
엠닷에이,제주특별자치도 제주시 한경면 판포1길 6,3943848.833,14048441.39
세븐일레븐제주용수리점,제주특별자치도 제주시 한경면 주전길 78,3939992.02,14045884.55
씨유제주,제주특별자치도 제주시 한경면 두신로 80,3941842.36,14046654.7
레몬비곶자왈,제주특별자치도 제주시 한경면 녹차분재로 609,3938191.304,14055319.16
지에스25제주한경점,제주특별자치도 제주시 한경면 중산간서로 3662,3939355.632,14054772.59
쎄븐일레븐고산리점,제주특별자치도 제주시 한경면 고산로 16,3935510.747,14046275.67
지에스25제주조수점,제주특별자치도 제주시 한경면 용금로 467,3939994.489,14051853
세븐일레븐제주용수해안로점,제주특별자치도 제주시 한경면 한경해안로 156,3938385.194,14044743.39
세븐일레븐제주신창리점,제주특별자치도 제주시 한경면 두신로 66,3941703.318,14046604.5
지에스25제주방림원,제주특별자치도 제주시 한경면 용금로 858,3940110.862,14056042.94
지에스25제주반딧불점,제주특별자치도 제주시 한경면 녹차분재로 506,3937504.368,14056328.7
세븐일레븐제주저지점,제주특별자치도 제주시 한경면 중산간서로 3703,3939862.944,14054796.43
세븐일레븐제주용수리점,제주특별자치도 제주시 한경면 주전길 78,3939992.02,14045884.55
세븐일레븐제주낙,제주특별자치도 제주시 한경면 낙수로 96,3938881.225,14051374.49
씨유제주청수점,제주특별자치도 제주시 한경면 중산간서로 3501,3938077.613,14053488.46
세븐일레븐제주수동,제주특별자치도 제주시 한경면 용금로 532,3940089.278,14052622.58
씨유제주두모리점,제주특별자치도 제주시 한경면 일주서로 4329,3942126.356,14047024.07
세븐일레븐제주금등리점,제주특별자치도 제주시 한경면 일주서로 4466,3943440.217,14047815.75
레몬비추자도점,제주특별자치도 제주시 추자면 신양2길 28,4021467.336,14062986.05
씨유제주추자도점,제주특별자치도 제주시 추자면 추자로 38,4023821.484,14059171.06
씨유제주우도해변길점,제주특별자치도 제주시 우도면 우도해안길 800,3963774.225,14132808.75
세븐일레븐제주우도비양도점,제주특별자치도 제주시 우도면 우도해안길 920,3963586.423,14133645.77
세븐일레븐제주우도해안길점,제주특별자치도 제주시 우도면 우도해안길 810,3963653.038,14132848.3
씨유제주우도점,제주특별자치도 제주시 우도면 우도해안길 248,3962188.442,14131342.62
우도언니,제주특별자치도 제주시 우도면 우도로 164,3962790.097,14132507.08
세븐일레븐제주우도천진항점,제주특별자치도 제주시 우도면 우도해안길 86,3961058.68,14132093.18
지에스25서귀,제주특별자치도 서귀포시 중앙로42번길 9,3928339.942,14088907.27
지에스25,제주특별자치도 서귀포시 중앙로62번길 2,3928537.477,14088785.11
세븐일레븐서귀포선경점,제주특별자치도 서귀포시 중정로 123,3928375.481,14089656.93
세븐일레븐서귀포,제주특별자치도 서귀포시 중정로 32,3928180.265,14088555.88
GS25서귀,제주특별자치도 서귀포시 태평로 355,3928059.996,14088537.23
세븐일레븐서귀포,제주특별자치도 서귀포시 태평로353번길 14,3928113.525,14088676.25
GS25서귀엘지점,제주특별자치도 서귀포시 중앙로 45,3928360.825,14088768.42
서귀포일터나눔지역자활센터-엄블랑디,제주특별자치도 서귀포시 일주동로 8713,3928849.192,14088328.1
세븐일레븐서귀포중앙,제주특별자치도 서귀포시 동문동로 35,3928689.524,14089105.55
으뜸아이스크림할인점,제주특별자치도 서귀포시 중앙로 40,3928293.108,14088818.32
세븐일레븐서귀포,제주특별자치도 서귀포시 동문로 64,3928402.7,14089367.49
씨유서귀포올레,제주특별자치도 서귀포시 중정로61번길 22,3928511.695,14088916.86
씨유서귀,제주특별자치도 서귀포시 중앙로72번길 45-2,3928866.514,14089233.34
지에스25서귀시민공원점,제주특별자치도 서귀포시 동홍로 29,3928671.386,14089443.85
씨유서귀걸매점,제주특별자치도 서귀포시 일주동로 8709,3928864.337,14088381.65
지에스25서귀서문로점,제주특별자치도 서귀포시 서문로 8,3928796.651,14088607.16
씨유서귀포동문,제주특별자치도 서귀포시 동홍로 11,3928514.079,14089437.64
씨유서귀포자,제주특별자치도 서귀포시 솔동산로21번길 31,3927551.071,14089399.42
지에스25서귀칠십리점,제주특별자치도 서귀포시 칠십리로 99,3927367.907,14089257.39
씨유서귀,제주특별자치도 서귀포시 칠십리로91번길 12,3927340.224,14089077.42
지에스GS25서귀,제주특별자치도 서귀포시 중앙로42번길 9,3928339.942,14088907.27
지에스25서귀,제주특별자치도 서귀포시 중정로91번길 46,3928704.455,14088883.16
지에스25이중섭,제주특별자치도 서귀포시 이중섭로 16,3928096.929,14089038.4
씨유서귀포올레,제주특별자치도 서귀포시 중정로61번길 22,3928511.695,14088916.86
씨유서귀포부두점,제주특별자치도 서귀포시 칠십리로 61,3927203.488,14088908.49
씨유서귀포,제주특별자치도 서귀포시 중앙로 85,3928821.989,14088703.57
씨유서귀포,제주특별자치도 서귀포시 중동로48번길 11,3928479.066,14089335.39
세븐일레븐서귀포서귀점,제주특별자치도 서귀포시 중앙로62번길 64,3929013.283,14089084.4
GS25서귀상품권,제주특별자치도 서귀포시 중정로91번길 46,3928704.455,14088883.16
세븐서귀포서문로점,제주특별자치도 서귀포시 서문로41번길 2,3928437.127,14088385.13
GS25서귀동변,제주특별자치도 서귀포시 중앙로48번길 42,3928544.978,14089241.32
지에스25서귀(상품권),제주특별자치도 서귀포시 중앙로42번길 9,3928339.942,14088907.27
세븐일레븐서귀포서문로점,제주특별자치도 서귀포시 서문로41번길 2,3928437.127,14088385.13
세븐일레븐서귀포이든호텔점,제주특별자치도 서귀포시 서문로 42-1,3928468.697,14088324.97
세븐일레븐서귀포오션,제주특별자치도 서귀포시 중앙로 14,3927994.881,14088861.82
세븐일레븐서귀포솔동산점,제주특별자치도 서귀포시 천지연로29번길 8,3927383.838,14088933.49
씨제이올리브영제주,제주특별자치도 서귀포시 중정로61번길 4,3928280.492,14088947.5
GS서귀오션점,제주특별자치도 서귀포시 중앙로 19-1,3928032.435,14088800.39
코리아세븐서귀포,제주특별자치도 서귀포시 태평로 440,3927980.584,14089391.17
씨유서귀라메르점,제주특별자치도 서귀포시 중정로5번길 15,3928355.119,14088356.39
세븐일레븐서귀포송산점,제주특별자치도 서귀포시 칠십리로 139,3927740.646,14089571.22
씨유서귀천지점,제주특별자치도 서귀포시 태평로371번길 21,3927970.394,14088913.52
GS25서귀솔동산점,제주특별자치도 서귀포시 솔동산로 20,3927621.373,14089015.05
세븐일레븐서귀올레,제주특별자치도 서귀포시 중앙로48번길 17-1,3928456.256,14088986.9
씨유서귀포,제주특별자치도 서귀포시 명동로 19-1,3928197.967,14089054.94
세븐일레븐서귀포서귀동점,제주특별자치도 서귀포시 태평로 403,3927829.734,14088982.33
GS25서귀중정점,제주특별자치도 서귀포시 중정로 17-1,3928221.591,14088420.34
씨유서귀정방점,제주특별자치도 서귀포시 태평로 463,3928219.411,14089565.89
대단한갈비,제주특별자치도 서귀포시 일주동로 8651,3929012.788,14089048.57
지에스25서귀엘지점상품권,제주특별자치도 서귀포시 중앙로 45,3928360.825,14088768.42
씨유서귀포송산점,제주특별자치도 서귀포시 태평로 414,3927820.65,14089106.68
세븐일레븐서귀포,제주특별자치도 서귀포시 태평로431번길 32,3928306.804,14089288.77
씨유서귀아랑점,제주특별자치도 서귀포시 중앙로71번길 15-2,3928592.049,14088565.76
세븐일레븐,제주특별자치도 서귀포시 중앙로 14,3927994.881,14088861.82
GS25서귀,제주특별자치도 서귀포시 중정로91번길 46,3928704.455,14088883.16
지에스25서귀포부두점,제주특별자치도 서귀포시 칠십리로 78,3927162.703,14089083.43
씨유서귀아랑조을거리,제주특별자치도 서귀포시 서문로29번길 15,3928386.367,14088532.75
씨유서귀씨엘호텔점,제주특별자치도 서귀포시 태평로 347,3928110.391,14088363.34
세븐서귀중앙점,제주특별자치도 서귀포시 태평로431번길 32,3928306.804,14089288.77
씨유서귀천지,제주특별자치도 서귀포시 중앙로89번길 6,3928874.648,14088606.09
씨유서귀포,제주특별자치도 서귀포시 중정로 53,3928241.611,14088826.19
씨유디아일랜드호텔점,제주특별자치도 서귀포시 태평로431번길 3,3927977.343,14089243.1
지에스25서귀엘지점,제주특별자치도 서귀포시 중앙로 45,3928360.825,14088768.42
세븐일레븐서귀,제주특별자치도 서귀포시 천지로 13,3928381.234,14088682.13
레몬비막숙포구점,제주특별자치도 서귀포시 막숙포로 40,3926906.193,14083632.33
지에스25서귀법환점,제주특별자치도 서귀포시 이어도로 900,3926753.875,14083134.06
세븐일레븐서귀포법환점,제주특별자치도 서귀포시 이어도로 938,3927026.02,14083536.29
세븐일레븐서귀포법환,제주특별자치도 서귀포시 막숙포로 152,3926036.665,14082739.38
GS25서귀신시가지,제주특별자치도 서귀포시 신서로48번길 52-11,3928817.278,14083084.49
세븐일레븐제주월드컵경,제주특별자치도 서귀포시 월드컵로 33,3928029.333,14082954.72
세븐일레븐서귀포라메르점,제주특별자치도 서귀포시 김정문화로 47,3928742.833,14082998.34
세븐제주월드컵경기장점,제주특별자치도 서귀포시 월드컵로 33,3928029.333,14082954.72
HOTELSeogwipoJS,제주특별자치도 서귀포시 김정문화로 51,3928722.227,14083067.92
레드페이스이마트,제주특별자치도 서귀포시 일주동로 9209,3928311.112,14082937.58
세리메이즈월드,제주특별자치도 서귀포시 법환상로2번길 97-13,3928178.736,14083331.25
지에스25법환포구,제주특별자치도 서귀포시 막숙포로 66,3926630.349,14083558.6
오케이코퍼레이션세븐일레븐서귀포밸류호텔,제주특별자치도 서귀포시 김정문화로 51,3928722.227,14083067.92
GS25서귀,제주특별자치도 서귀포시 일주동로 9213,3928361.714,14082867.58
에이치와이,제주특별자치도 서귀포시 막숙포로 118,3926241.955,14082998.01
세븐일레븐서귀포라마다점,제주특별자치도 서귀포시 서호중로 55,3929128.953,14084066.78
지에스25서귀보영점,제주특별자치도 서귀포시 신동로67번길 24,3929319.177,14083267.31
씨유서귀고근산점,제주특별자치도 서귀포시 중산간동로 8442,3929955.749,14083549.78
지에스25서귀유포리아점,제주특별자치도 서귀포시 서호중앙로 55,3928872.275,14083993.95
씨유서귀포법환길점,제주특별자치도 서귀포시 이어도로 1041-1,3927871.381,14084416.58
씨유서귀,제주특별자치도 서귀포시 신동로67번길 11,3929180.099,14083277.64
레몬비서호,제주특별자치도 서귀포시 서호남로32번길 39,3928484.194,14083543.13
씨유서귀신북로점,제주특별자치도 서귀포시 신서로98번길 74,3929649.184,14083431.07
씨유서귀호근,제주특별자치도 서귀포시 서호호근로 75,3929051.447,14084609.01
씨유제주서호점,제주특별자치도 서귀포시 김정문화로 63,3928661.713,14083200.18
레몬비이스턴호텔점,제주특별자치도 서귀포시 서호중로 65,3929113.429,14084156.59
씨유서귀호근,제주특별자치도 서귀포시 호근서호로 125,3929486.526,14084989.95
레몬비토계촌점,제주특별자치도 서귀포시 일주동로 8884,3929192.613,14086361.87
씨유서귀호근로점,제주특별자치도 서귀포시 중산간동로 8351,3930007.534,14084657.69
씨유서귀호근점,제주특별자치도 서귀포시 호근서호로 153,3929499.752,14084652.89
씨유서귀정방연로점,제주특별자치도 서귀포시 정방연로 47-1,3928772.79,14090448.28
지에스25서귀비석,제주특별자치도 서귀포시 일주동로 8541,3929136.209,14090343.01
GS25서귀,제주특별자치도 서귀포시 동홍중앙로 50,3929207.816,14089963.35
씨유서귀문부로점,제주특별자치도 서귀포시 동홍서로 37,3928824.322,14089655.59
지에스25제주정방폭포점,제주특별자치도 서귀포시 칠십리로214번길 36,3927865.123,14090071.19
씨제이올리브영서귀포,제주특별자치도 서귀포시 일주동로 8666,3929024.646,14088864.44
씨유서귀포,제주특별자치도 서귀포시 중앙로 172,3929850.486,14088609.42
씨유서귀포세기점,제주특별자치도 서귀포시 태평로 551,3928917.419,14090317.31
씨유서귀포현대점,제주특별자치도 서귀포시 동홍남로 59,3929468.355,14090232.18
세븐일레븐서귀포동홍,제주특별자치도 서귀포시 동홍중앙로 17,3928842.202,14089908.59
씨유서귀남고,제주특별자치도 서귀포시 중산간동로 7936,3930689.386,14089556.1
세븐일레븐서귀포동홍현대점,제주특별자치도 서귀포시 동홍남로 70,3929431.64,14090355.72
씨유서귀동홍,제주특별자치도 서귀포시 동홍로90번길 9,3929414.29,14089616.49
씨유서귀동홍,제주특별자치도 서귀포시 동홍중앙로 58-1,3929327.784,14089959.33
멀티편의점,제주특별자치도 서귀포시 동홍북로 74,3929675.885,14090399
지에스25열린,제주특별자치도 서귀포시 일주동로 8638,3929127.762,14089204.68
지에스25서귀오일장점,제주특별자치도 서귀포시 토평서로11번길 155,3930629.813,14090112.46
지에스25서귀,제주특별자치도 서귀포시 일주동로 8678,3928989.296,14088738.3
세븐서귀동홍센터점,제주특별자치도 서귀포시 동홍로 45,3928896.879,14089433.61
세븐일레븐서귀포,제주특별자치도 서귀포시 동홍중앙로 70,3929434.684,14089965.04
GS25서귀고점,제주특별자치도 서귀포시 중앙로 148,3929577.422,14088652.59
지에스25동홍,제주특별자치도 서귀포시 중앙로 198-20,3930134.597,14088670.04
지에스25서귀남주점,제주특별자치도 서귀포시 동홍로 270,3931495.355,14089678.92
씨유서귀동홍북로점,제주특별자치도 서귀포시 동홍북로 22-1,3929743.262,14089798.37
훼미리마트,제주특별자치도 서귀포시 칠십리로 191,3928082.267,14090065.85
세븐일레븐서귀포노블휘닉스점,제주특별자치도 서귀포시 태평로 505,3928577.639,14089870.39
씨유서귀포,제주특별자치도 서귀포시 중산간동로 8004,3930487.798,14088778.69
세븐일레븐서귀포동홍로점,제주특별자치도 서귀포시 동홍로99번길 9,3929509.173,14089446.76
지에스25서귀동홍,제주특별자치도 서귀포시 동홍로162번길 3,3930263.291,14089471.11
지에스25동홍,제주특별자치도 서귀포시 동홍동로32번길 12,3929541.481,14090400.82
비지에프리테일서귀동홍교차로점,제주특별자치도 서귀포시 일주동로 8544,3929206.861,14090331.3
세븐서귀포동홍점,제주특별자치도 서귀포시 동홍중앙로 70,3929434.684,14089965.04
씨유서귀외돌개점,제주특별자치도 서귀포시 남성중로 131,3927717.93,14088015.18
우리동네분식가게,제주특별자치도 서귀포시 홍중로 80,3929809.274,14088147.66
세븐일레븐서귀포서홍동점,제주특별자치도 서귀포시 중산간동로 8066,3930434.439,14088047.06
씨유서귀서홍,제주특별자치도 서귀포시 홍중로 97,3930011.724,14088032.57
씨유서귀선반네점,제주특별자치도 서귀포시 일주동로 8738,3928853.148,14088007.91
지에스25서귀홍중점,제주특별자치도 서귀포시 홍중로 57,3929559.527,14088227.55
씨유서귀에코지오빌점,제주특별자치도 서귀포시 중앙로195번길 12,3930137.261,14088342.66
씨유서귀홍중로점,제주특별자치도 서귀포시 홍중로27번길 1,3929219.579,14088380.35
지에스25서귀,제주특별자치도 서귀포시 홍중로 38,3929365.631,14088353.26
씨유서귀포천지연점,제주특별자치도 서귀포시 남성중로 2-3,3927651.16,14088565.53
세븐일레븐서귀포천지연점,제주특별자치도 서귀포시 남성중로 2-15,3927829.771,14088551.14
씨유서귀포,제주특별자치도 서귀포시 중앙로 113,3929171.786,14088655.77
GS25신라기숙사점,제주특별자치도 서귀포시 홍중로 35,3929230.558,14088220.13
씨유서귀우리들점,제주특별자치도 서귀포시 서홍로 161,3930156.049,14087622
씨유서귀서홍로점,제주특별자치도 서귀포시 중산간동로 8048-2,3930440.976,14088258.44
찬찬찬밑반찬판매,제주특별자치도 서귀포시 중앙로101번길 17,3928981.992,14088470.82
GS25서귀소원점,제주특별자치도 서귀포시 중앙로 183,3929987.906,14088478.51
지에스25서귀서홍점,제주특별자치도 서귀포시 홍중로 82,3929841.543,14088137.66
지에스25서귀돈내코,제주특별자치도 서귀포시 산록남로 2754,3935487.485,14090461.13
씨유서귀포돈내코점,제주특별자치도 서귀포시 516로 466,3934224.176,14092484.87
씨유서귀포효돈,제주특별자치도 서귀포시 과원동로 3,3930021.707,14095305.65
세븐일레븐서귀포쇠소깍점,제주특별자치도 서귀포시 쇠소깍로 128,3928811.077,14095609.45
씨유서귀포하효,제주특별자치도 서귀포시 효돈순환로 252,3929459.181,14094974.96
씨유서귀포효돈점,제주특별자치도 서귀포시 일주동로 8092,3930280.434,14095445.61
GS25쇠소깍점,제주특별자치도 서귀포시 쇠소깍로 151-1,3928600.114,14095448.56
씨유효돈,제주특별자치도 서귀포시 효돈북로 9,3930889.652,14095040.94
GS25서귀효돈점,제주특별자치도 서귀포시 효돈로 144,3930360.83,14094630.95
씨유서귀포신효점,제주특별자치도 서귀포시 효돈로123번길 1,3930416.354,14094384.1
GS25제주보목점,제주특별자치도 서귀포시 칠십리로 458-1,3927503.466,14093041.86
씨유서귀포보목포구점,제주특별자치도 서귀포시 보목포로 51-1,3927139.926,14093851.72
씨유서귀포공업단지점,제주특별자치도 서귀포시 토평공단로 114,3934146.694,14091288.42
씨유서귀토평점,제주특별자치도 서귀포시 중산간동로 7738,3930952.875,14091883.5
씨유서귀포물류,제주특별자치도 서귀포시 토평공단로155번길 45,3934150.515,14090601.18
파우제마켓,제주특별자치도 서귀포시 인정오름로86번길 2,3933487.112,14090643.64
씨유제주516도로점,제주특별자치도 서귀포시 516로 176,3931029.991,14091463.1
씨유서귀포비석,제주특별자치도 서귀포시 일주동로 8493,3929285.664,14090915.58
씨유제주큐브리조트점,제주특별자치도 서귀포시 솔오름로105번길 24,3933312.129,14089007.65
세븐일레븐서귀포토평,제주특별자치도 서귀포시 516로 143,3930650.913,14091392.94
GS중문,제주특별자치도 서귀포시 중문로 80,3929629.791,14073792
지에스25중문클라우드점,제주특별자치도 서귀포시 천제연로178번길 26,3928455.884,14073386.75
씨유제주중문,제주특별자치도 서귀포시 일주서로 712,3929365.395,14074564.08
씨유중문,제주특별자치도 서귀포시 중문상로82번길 16,3929140.048,14074026.31
지에스25중문시티,제주특별자치도 서귀포시 중문상로 27,3928653.958,14073548.61
씨유제주중문,제주특별자치도 서귀포시 중문로 29-1,3929121.279,14073499.79
컨벤션편의점,제주특별자치도 서귀포시 중문관광로 227-5,3927665.867,14073441.61
GS25서귀,제주특별자치도 서귀포시 천제연로 210,3928729.601,14073788.77
GS25중문,제주특별자치도 서귀포시 중문로 53,3929374.198,14073636.95
씨유제주중문,제주특별자치도 서귀포시 1100로 6,3928725.953,14074341.88
씨유제주,제주특별자치도 서귀포시 중문상로 38,3928775.445,14073645.93
지에스25중문,제주특별자치도 서귀포시 천제연로 180,3928753.082,14073437.23
씨유제주중문길점,제주특별자치도 서귀포시 천제연로 168,3928778.65,14073303.06
지에스25중문,제주특별자치도 서귀포시 천제연로207번길 18,3928959.104,14073806.83
씨유제주부영리조트점,제주특별자치도 서귀포시 중문관광로 216,3927446.396,14073292.02
씨유제주중문자청비점,제주특별자치도 서귀포시 중산간서로 830,3930211.426,14073759.39
GS25대포,제주특별자치도 서귀포시 천제연로 278,3928659.174,14074609.26
씨유제주중문,제주특별자치도 서귀포시 천제연로213번길 44,3929192.347,14073913.24
세븐일레븐서귀포더웰,제주특별자치도 서귀포시 천제연로 144,3928899.867,14073065.92
씨유제주회수,제주특별자치도 서귀포시 1100로 178,3930269.402,14075697.47
세븐일레븐서귀포대포점,제주특별자치도 서귀포시 이어도로 163,3927132.771,14075173.06
지에스25서귀대포점,제주특별자치도 서귀포시 이어도로 129,3927091.364,14074812.98
씨유중문오션힐스점,제주특별자치도 서귀포시 중문관광로301번길 3,3928139.434,14074046.06
씨유서귀대포,제주특별자치도 서귀포시 대포중앙로 92,3927610.73,14074319.12
씨유중문대포점,제주특별자치도 서귀포시 천제연로 295,3928697.061,14074814.15
씨유서귀월평동점,제주특별자치도 서귀포시 이어도로 398,3927573.272,14077677.14
씨유서귀하원점,제주특별자치도 서귀포시 일주서로 443,3929018.503,14077616.54
씨유서귀켄싱턴리조트점,제주특별자치도 서귀포시 이어도로 684,3926346.643,14080689.16
GS25제주강정점,제주특별자치도 서귀포시 이어도로 752,3926618.047,14081449.62
피에스테크제주,제주특별자치도 서귀포시 대청로 33,3928901.92,14082292.5
세븐일레븐서귀포엉또폭포점,제주특별자치도 서귀포시 중산간서로 184,3929885.245,14080987.06
지에스25N서귀강정점,제주특별자치도 서귀포시 이어도로 662,3926205.103,14080609.99
GS25신,제주특별자치도 서귀포시 신서귀로97번길 45,3929140.907,14082720.33
세븐일레븐서귀포강정천점,제주특별자치도 서귀포시 이어도로 685-1,3926501.643,14080703.65
cu서귀강정이어도로점,제주특별자치도 서귀포시 이어도로 793,3926758.231,14081933.7null
씨제이올리브영서귀포강정지구점,제주특별자치도 서귀포시 대청로 37,3928901.287,14082331.93
씨유서귀강정천점,제주특별자치도 서귀포시 이어도로 638,3926387.143,14080173.84
씨유서귀포,제주특별자치도 서귀포시 신북로 39,3929655.611,14083041.53
레몬비스위트메이호텔점,제주특별자치도 서귀포시 김정문화로27번길 9-1,3928863.068,14082762.51
씨유서귀포염돈길점,제주특별자치도 서귀포시 일주서로 138,3928563.873,14081156.56
세븐일레븐서귀포윈스카이점,제주특별자치도 서귀포시 신중남로 17,3928956.834,14082856.74
씨유서귀월드컵로점,제주특별자치도 서귀포시 월드컵로 8,3928399.442,14082736.85
세븐일레븐서귀포범섬점,제주특별자치도 서귀포시 월드컵로 169,3926491.732,14082676.78
지에스25강정LH점,제주특별자치도 서귀포시 대청로25번길 9,3928966.18,14082170.93
세븐서귀포강정점,제주특별자치도 서귀포시 신서귀로97번길 87,3928694.05,14082609.62
씨유신서귀로점,제주특별자치도 서귀포시 김정문화로27번길 9-6,3928925.122,14082737.73
세븐일레븐서귀포신북로점,제주특별자치도 서귀포시 신북로 54,3929690.877,14082906.04
씨유서귀,제주특별자치도 서귀포시 대청로 33,3928901.92,14082292.5
씨유강정,제주특별자치도 서귀포시 이어도로 579,3926695.821,14079536.4
지에스25서귀도순점,제주특별자치도 서귀포시 일주서로 327,3928863.574,14078993.72
씨유서귀,제주특별자치도 서귀포시 하원로 36-1,3929496.682,14077650.15
이에스리조트클럽,제주특별자치도 서귀포시 1100로 501,3933860.999,14077048.37
지에스25색달,제주특별자치도 서귀포시 색달로 85,3930113.857,14072157.63
씨유스위트호텔점,제주특별자치도 서귀포시 중문관광로72번길 67,3928406.767,14071737.91
지에스25제주하나호텔점,제주특별자치도 서귀포시 중문관광로72번길 53,3928522.548,14071696.74
씨유서귀색,제주특별자치도 서귀포시 색달중앙로 48,3929842.738,14072324.2
세븐서귀포색달점,제주특별자치도 서귀포시 색달중앙로 25,3929569.764,14072290.1
세븐일레븐서귀포한국콘도점,제주특별자치도 서귀포시 중문관광로72번길 29-29,3928215.587,14072185.15
씨유중문일주서로점,제주특별자치도 서귀포시 일주서로 962,3929642.178,14071688.12
GS25색달블루점,제주특별자치도 서귀포시 색달로 60,3929957.697,14071913.9
세븐서귀포중문롯데점,제주특별자치도 서귀포시 중문관광로72번길 29-9,3928492.359,14072077.04
칠선녀편의점,제주특별자치도 서귀포시 중문관광로 99,3928617.23,14072474.11
지에스25파르나스제주,제주특별자치도 서귀포시 중문관광로72번길 100,3927756.121,14071410.95
세븐일레븐서귀포중문,제주특별자치도 서귀포시 중문관광로 31,3929250.985,14072400.04
세븐일레븐서귀포롯데호텔점,제주특별자치도 서귀포시 중문관광로72번길 35,3928322.394,14071949.42
레몬비씨사이드아덴점,제주특별자치도 서귀포시 중문관광로 124,3928414.056,14072450.9
씨유제주그랜드조선호텔점,제주특별자치도 서귀포시 중문관광로72번길 60,3929094.62,14072063.15
씨제이올리브영제주,제주특별자치도 서귀포시 중문관광로110번길 32,3928694.667,14072200.6
지에스25퍼시픽랜드점,제주특별자치도 서귀포시 중문관광로 154-17,3927872.782,14072527.16
GS25중문단지점,제주특별자치도 서귀포시 중문관광로110번길 32,3928695.867,14072200.58
세븐일레븐서귀포색달점,제주특별자치도 서귀포시 색달중앙로 25,3929569.764,14072290.1
씨유서귀예래,제주특별자치도 서귀포시 예래로 98,3928982.506,14070466.56
세븐일레븐서귀포상예동점,제주특별자치도 서귀포시 일주서로 1229,3930381.788,14068749.95
지에스25중문상예점,제주특별자치도 서귀포시 일주서로 1076,3930271.851,14070563.95
예래클리프개발,제주특별자치도 서귀포시 예래해안로 542,3929162.355,14071079.01
세븐일레븐서귀포스카이힐점,제주특별자치도 서귀포시 일주서로 1124,3930454.562,14070036.69
지에스25예래자스름,제주특별자치도 서귀포시 예래로 38,3929390.144,14070984.75
서귀포호텔편의점,제주특별자치도 서귀포시 상예로 319,3931620.14,14070193.28
세븐일레븐서귀포롯데기숙사점,제주특별자치도 서귀포시 예래로109번길 14,3928697.35,14070341.91
씨유서귀논짓물점,제주특별자치도 서귀포시 논짓물로 15-10,3926769.387,14069442.19
GS25대평,제주특별자치도 서귀포시 예래로 454,3926582.89,14067407.61
씨유예래반딧불이점,제주특별자치도 서귀포시 하예로 1-3,3927660.196,14069237.41
씨유서귀예래점,제주특별자치도 서귀포시 예래로 446,3926631.022,14067492.85
씨유서귀송악도서관점,제주특별자치도 서귀포시 대정읍 동일하모로149번길 5,3925364.543,14053796.61
씨유대정농공단지점,제주특별자치도 서귀포시 대정읍 일주서로3000번길 8,3928414.92,14050770.36
씨유서귀대정태화점,제주특별자치도 서귀포시 대정읍 하모중앙로 54,3924991.888,14054323.45
지에스25마라도포구점,제주특별자치도 서귀포시 대정읍 마라로 41,3911224.024,14056004.78
씨유모슬포점,제주특별자치도 서귀포시 대정읍 상모대서로 25,3925259.709,14054840.82
씨유서귀대정시계탑점,제주특별자치도 서귀포시 대정읍 하모상가로 45-1,3924793.279,14054498.7
씨유제주영어,제주특별자치도 서귀포시 대정읍 글로벌에듀로145번길 40,3934624.918,14058515.41
지에스25대정,제주특별자치도 서귀포시 대정읍 하모중앙로 76,3924725.066,14054294.45
씨유서귀구억점,제주특별자치도 서귀포시 대정읍 중산간서로 2397,3931352.558,14057298.75
오케이인터내셔널,제주특별자치도 서귀포시 대정읍 중산간서로 2217,3932509.255,14058649.09
지에스25서귀송악산점,제주특별자치도 서귀포시 대정읍 형제해안로 322-1,3922788.054,14058502.83
지에스리테일GS25N제주관제점,제주특별자치도 서귀포시 대정읍 일주서로 2512-41,3925938.256,14054737.61
GS25제주,제주특별자치도 서귀포시 대정읍 중산간서로 2613,3930507.919,14055088.16
세븐일레븐서귀포상모로점,제주특별자치도 서귀포시 대정읍 상모로274번길 2,3925012.709,14055207.92
지에스25대정상모점,제주특별자치도 서귀포시 대정읍 상모로 290,3924994.022,14055023.15
씨유대정하모리점,제주특별자치도 서귀포시 대정읍 최남단해안로 2,3924578.665,14054292.12
세븐일레븐서귀포대정,제주특별자치도 서귀포시 대정읍 노을해안로 5,3927746.022,14051374.1
GS25마라도점,제주특별자치도 서귀포시 대정읍 마라로101번길 43,3911020.356,14055935.38
지에스25제주국제점,제주특별자치도 서귀포시 대정읍 글로벌에듀로145번길 40,3934624.918,14058515.41
씨유제주,제주특별자치도 서귀포시 대정읍 에듀시티로 48,3933973.976,14057849.65
씨유제주송악산점,제주특별자치도 서귀포시 대정읍 형제해안로 306,3922914.374,14058671.5
가파도마을애가게스토어,제주특별자치도 서귀포시 대정읍 가파로 76,3917427.716,14056771.38
씨유제주이노에듀타운점,제주특별자치도 서귀포시 대정읍 글로벌에듀로 382,3932570.1,14057099.54
세븐일레븐서귀포,제주특별자치도 서귀포시 대정읍 중산간서로 2634,3930681.291,14054904.89
지에스25모슬포타운,제주특별자치도 서귀포시 대정읍 신영로 104,3924698.97,14054526.54
씨유서귀최남단해안로점,제주특별자치도 서귀포시 대정읍 최남단해안로125번길 3,3923432.003,14054874.73null
씨유서귀영락해안도로점,제주특별자치도 서귀포시 대정읍 노을해안로 288,3928364.965,14048565.11
세븐일레븐서귀포대정주공점,제주특별자치도 서귀포시 대정읍 하모중앙로 5,3925566.912,14054415.38
씨유제주대정주공점,제주특별자치도 서귀포시 대정읍 하모중앙로 6,3925568.188,14054348.49
씨유서귀대정,제주특별자치도 서귀포시 대정읍 에듀시티로239번길 8,3932399.462,14056800.05
씨유서귀무릉점,제주특별자치도 서귀포시 대정읍 무릉송당로 1,3931277.242,14048877.16
씨유서귀상모교차로점,제주특별자치도 서귀포시 대정읍 상모로 222,3925209.344,14055775.45
세븐일레븐서귀포대정상모점,제주특별자치도 서귀포시 대정읍 비행장로 35,3924497.206,14054871.38
세븐일레븐모슬,제주특별자치도 서귀포시 대정읍 최남단해안로 44,3924097.001,14054327.59
지에스25제주추사관점,제주특별자치도 서귀포시 대정읍 추사로36번길 1,3928531.088,14057315.16
씨유제주,제주특별자치도 서귀포시 대정읍 평화로 6,3928600.431,14057880.2
레몬비라임힐점,제주특별자치도 서귀포시 대정읍 영어도시로 77,3932393.639,14057317.52
지에스25모슬,제주특별자치도 서귀포시 대정읍 하모항구로 4,3924047.549,14054311.7
씨유서귀,제주특별자치도 서귀포시 대정읍 영서중로 20,3924695.397,14054742.72
세븐일레븐서귀포태위로점,제주특별자치도 서귀포시 남원읍 태위로 176,3931896.489,14100435.72
씨유서귀포남원길점,제주특별자치도 서귀포시 남원읍 태위로 481,3931879.673,14104033.74
레몬비하례점,제주특별자치도 서귀포시 남원읍 일주동로 8046,3930368.164,14095997.61
지에스25제주,제주특별자치도 서귀포시 남원읍 태위로 680-1,3932395.488,14106319.25
씨유서귀태흥점,제주특별자치도 서귀포시 남원읍 일주동로 6745,3934250.768,14110590.74
지에스25제주상품권,제주특별자치도 서귀포시 남원읍 태위로 680-1,3932395.488,14106319.25
씨유서귀태신로점,제주특별자치도 서귀포시 남원읍 태신로 1,3933401.081,14109227.68
키위티이십사제주,제주특별자치도 서귀포시 남원읍 태위로 932,3933333.261,14109179.5
세븐일레븐서귀포동백,제주특별자치도 서귀포시 남원읍 한신로 543,3937729.179,14109330.09
지에스25남원위미점,제주특별자치도 서귀포시 남원읍 태위로 216,3931823.237,14100902.65
GS25제주,제주특별자치도 서귀포시 남원읍 태위로 680-1,3932395.488,14106319.25
지에스25서귀위미점,제주특별자치도 서귀포시 남원읍 태위로 69,3931709.695,14099169.14
레몬비,제주특별자치도 서귀포시 남원읍 일주동로 7224,3932823.965,14105144.12
씨유서귀남원로점,제주특별자치도 서귀포시 남원읍 태위로723번길 31-11,3932760.574,14106522.72
씨유서귀코업시티호텔점,제주특별자치도 서귀포시 남원읍 태위로 108,3931793.565,14099620.92
세븐일레븐서귀포남원신례점,제주특별자치도 서귀포시 남원읍 신례동로 2,3933287.778,14096908.23
포구편의점,제주특별자치도 서귀포시 남원읍 남원회관로 55,3932311.195,14106298.77
씨유서귀신례점,제주특별자치도 서귀포시 남원읍 중산간동로 7137,3932945.971,14096389.28
세븐일레븐서귀포,제주특별자치도 서귀포시 남원읍 일주동로 6611,3935357.688,14111780.05
씨유남제주점,제주특별자치도 서귀포시 남원읍 태위로 673,3932407.485,14106221.12
씨유서귀일주대로점,제주특별자치도 서귀포시 남원읍 일주동로 7121-18,3932880.716,14106236.84
씨유서귀,제주특별자치도 서귀포시 남원읍 일주동로 6621,3935249.491,14111668.97
세븐일레븐서귀포의귀점,제주특별자치도 서귀포시 남원읍 의귀로 103,3936534.498,14106018.85
씨유제주남원의귀점,제주특별자치도 서귀포시 남원읍 의귀로 120,3936752.099,14106036.51
지에스25서귀공천포점,제주특별자치도 서귀포시 남원읍 일주동로 7897,3930693.22,14097715.01
씨유서귀에덴점,제주특별자치도 서귀포시 남원읍 태위로 623,3932228.846,14105658.1
씨유서귀위미,제주특별자치도 서귀포시 남원읍 태위로 369,3931928.92,14102699.63
씨유서귀남원태위로점,제주특별자치도 서귀포시 남원읍 태위로 703,3932515.208,14106584.26
씨유서귀위미항점,제주특별자치도 서귀포시 남원읍 태위로 88,3931750.87,14099382.5
씨유제주위미점,제주특별자치도 서귀포시 남원읍 태위로 200,3931849.522,14100705.16
알리바이,제주특별자치도 서귀포시 성산읍 섭지코지로26번길 6,3953663.036,14128609.51
지에스25제주신산리점,제주특별자치도 서귀포시 성산읍 일주동로 5096,3946111.809,14123845.76
GS25성산,제주특별자치도 서귀포시 성산읍 고성오조로 49,3954921.995,14128109.19
씨유제주성산점,제주특별자치도 서귀포시 성산읍 일출로 18,3954820.748,14128089.88
지에스25수산,제주특별자치도 서귀포시 성산읍 서성일로 1029,3954332.842,14125186.87
지에스25성산아로하,제주특별자치도 서귀포시 성산읍 성산등용로 40,3957387.679,14129905.03
세븐일레븐서귀포코델리아점,제주특별자치도 서귀포시 성산읍 일주동로 4186,3955844.053,14127593.11
씨유성산포항여객,제주특별자치도 서귀포시 성산읍 성산등용로 130-21,3958245.652,14130262.73
세븐일레븐서귀포신산리점,제주특별자치도 서귀포시 성산읍 일주동로 5065,3946382.38,14124078.55
씨유브라운스위트제주호텔점,제주특별자치도 서귀포시 성산읍 고성오조로 94,3955467.681,14128066.4
씨유제주,제주특별자치도 서귀포시 성산읍 동류암로 48,3955063.537,14128185.54
지에스25성산신양점,제주특별자치도 서귀포시 성산읍 섭지코지로26번길 6,3953663.036,14128609.51
혼저옵서편의점,제주특별자치도 서귀포시 성산읍 일출로 276,3956817.869,14130301.25
세븐서귀포고성점,제주특별자치도 서귀포시 성산읍 고성동서로 66,3955255.783,14128049.44
씨유제주빛의벙커점,제주특별자치도 서귀포시 성산읍 서성일로 1181,3954676.612,14126968.34
CU플레이스캠프제주점,제주특별자치도 서귀포시 성산읍 동류암로 20,3955167.58,14128471.82
세븐일레븐서귀포온평애향점,제주특별자치도 서귀포시 성산읍 온평애향로 44,3949398.429,14126637.11
씨유제주,제주특별자치도 서귀포시 성산읍 신양로 114,3953372.226,14128865.11
씨유제주성산아쿠아점,제주특별자치도 서귀포시 성산읍 일주동로 4258,3954965.509,14127785.46
씨유봄그리고가을리조트점,제주특별자치도 서귀포시 성산읍 해맞이해안로 2660,3958407.617,14127676.53
지에스25성산난산리점,제주특별자치도 서귀포시 성산읍 난산로 4,3948678.125,14123601.6
GS25제주플레이스캠프,제주특별자치도 서귀포시 성산읍 동류암로 20,3955167.58,14128471.82
세븐일레븐서귀포,제주특별자치도 서귀포시 성산읍 고성동서로 66,3955255.783,14128049.44
GS25제주플레이스캠프상품권,제주특별자치도 서귀포시 성산읍 동류암로 20,3955167.58,14128471.82
씨유성산신산점,제주특별자치도 서귀포시 성산읍 일주동로 5115,3945875.792,14123806.42
씨유성산,제주특별자치도 서귀포시 성산읍 일주동로 3954,3958231.133,14126576.55
GS25제주성산항점,제주특별자치도 서귀포시 성산읍 성산등용로 88,3957768.989,14129778.97
세븐일레븐서귀포더포그레이스점,제주특별자치도 서귀포시 성산읍 해맞이해안로 2670,3958281.062,14127656.29
GS25성산오조점,제주특별자치도 서귀포시 성산읍 한도로 129,3957716.4,14128886.12
세븐일레븐서귀포성산,제주특별자치도 서귀포시 성산읍 시흥상동로 64,3958511.542,14126241.84
세븐일레븐서귀포코델리아리조트점,제주특별자치도 서귀포시 성산읍 일주동로4120번길 23-20,3956396.022,14127571.78
씨유성산포항여객,제주특별자치도 서귀포시 성산읍 성산등용로 130-21,3958245.652,14130262.73
세븐일레븐성산라마다호텔점,제주특별자치도 서귀포시 성산읍 동류암로 26,3955120.884,14128377.71
지에스25제주아쿠아플라넷,제주특별자치도 서귀포시 성산읍 섭지코지로 95,3952898.185,14129543.97
세븐일레븐서귀포삼달점,제주특별자치도 서귀포시 성산읍 삼달로 190,3945055.733,14120817.37
세븐일레븐제주성산일출점,제주특별자치도 서귀포시 성산읍 일출로 284,3956885.755,14130350.85
세븐일레븐성산일출로점,제주특별자치도 서귀포시 성산읍 일출로 234,3956540.595,14129896.94
레몬비제주성산점,제주특별자치도 서귀포시 성산읍 성산등용로17번길 55,3956560.502,14129727.9
GS25성산상품권,제주특별자치도 서귀포시 성산읍 고성오조로 49,3954921.995,14128109.19
GS25성산,제주특별자치도 서귀포시 성산읍 성산중앙로 44,3956998.621,14130211.99
씨유성산신양점,제주특별자치도 서귀포시 성산읍 신양로 81,3953383.938,14128489.09
세븐일세븐서귀포수산리점,제주특별자치도 서귀포시 성산읍 수시로 13,3954739.364,14124958.66
씨유성산골든튤립점,제주특별자치도 서귀포시 성산읍 일출로 31,3954915.169,14128261.31
지에스25성산,제주특별자치도 서귀포시 성산읍 성산중앙로 44,3956998.621,14130211.99
지에스25제주,제주특별자치도 서귀포시 성산읍 신양로 103,3953415.737,14128770.09
씨유성산수산점,제주특별자치도 서귀포시 성산읍 서성일로 908,3953729.366,14123881.2
지에스25성산,제주특별자치도 서귀포시 성산읍 고성오조로 73,3955216.128,14128053.45
씨유성산온평점,제주특별자치도 서귀포시 성산읍 온평애향로 2,3949504.304,14126190.81
지에스25성산오일장점,제주특별자치도 서귀포시 성산읍 고성오조로 106,3955584.97,14128008.9
씨유제주성산,제주특별자치도 서귀포시 성산읍 성산등용로 3,3957099.538,14130197.79
지에스25성산삼달점,제주특별자치도 서귀포시 성산읍 일주동로 5251,3944437.015,14123024
지에스25제주성산일출점,제주특별자치도 서귀포시 성산읍 일출로 264-1,3956691.125,14130260.63
세븐일레븐서귀포온평점,제주특별자치도 서귀포시 성산읍 환해장성로 667,3950276.413,14127456.08
지에스25제주산방산점,제주특별자치도 서귀포시 안덕면 산방로 260,3926512.927,14060546.45
준인베스트먼트지점,제주특별자치도 서귀포시 안덕면 신화역사로304번길 38,3935852.5,14061478.63
지에스25안덕계곡점,제주특별자치도 서귀포시 안덕면 일주서로 1526,3929641.106,14065532.39
담모라키친,제주특별자치도 서귀포시 안덕면 일주서로 1975-11,3928495.375,14060329.36
지에스25제주화순,제주특별자치도 서귀포시 안덕면 화순로 98,3928114.791,14063664.36
지에스25서귀담모라,제주특별자치도 서귀포시 안덕면 일주서로 1975-11,3928495.375,14060329.36
서광마을,제주특별자치도 서귀포시 안덕면 녹차분재로 199,3935112.256,14058943.69
담모라호텔앤리조트,제주특별자치도 서귀포시 안덕면 일주서로 1975-11,3928495.375,14060329.36
GS25서귀서광동리점상품권,제주특별자치도 서귀포시 안덕면 중산간서로 1882,3933756.584,14062107.4
세븐일레븐서귀포사계엘린점,제주특별자치도 서귀포시 안덕면 사계로 187-3,3928090.632,14059941.73
지에스25서귀서광동리점,제주특별자치도 서귀포시 안덕면 중산간서로 1882,3933756.584,14062107.4
세븐일레븐서귀포신화역사로점,제주특별자치도 서귀포시 안덕면 신화역사로 372-1,3936430.068,14062738.74
지에스25서귀상창,제주특별자치도 서귀포시 안덕면 한창로 168,3932113.663,14066433.91
씨유서귀동광로점,제주특별자치도 서귀포시 안덕면 동광로 257,3937599.699,14064755.84
지에스25사계포구점,제주특별자치도 서귀포시 안덕면 사계남로 165,3925642.18,14060493.61
세븐일레븐서귀포안덕사계점,제주특별자치도 서귀포시 안덕면 사계남로21번길 30-5,3926038.046,14059239.28
씨유서귀상창교차로점,제주특별자치도 서귀포시 안덕면 한창로 266,3933033.072,14065738.43
씨유제주신화빌라스점,제주특별자치도 서귀포시 안덕면 신화역사로304번길 139,3935374.292,14061609.42
씨유서귀덕수점,제주특별자치도 서귀포시 안덕면 덕수서로 7,3928677.098,14060066.03
세븐일레븐서귀포산방,제주특별자치도 서귀포시 안덕면 사계북로 190,3926884.232,14060431.79
제주항공우주호텔,제주특별자치도 서귀포시 안덕면 녹차분재로 216,3935518.755,14059055.39
세븐일레븐서귀포대평점,제주특별자치도 서귀포시 안덕면 대평감산로 35,3926925.783,14067006.97
지에스25서귀창천점,제주특별자치도 서귀포시 안덕면 한창로 1,3930559.297,14067588.36
씨유서귀감산리점,제주특별자치도 서귀포시 안덕면 일주서로 1499,3929790.967,14065825.1
세븐일레븐서귀포산방,제주특별자치도 서귀포시 안덕면 사계북로41번길 178-3,3928394.681,14059454.26
씨유서귀서광동리점,제주특별자치도 서귀포시 안덕면 중산간서로 1817,3933437.556,14062798.42
세븐일레븐서귀포,제주특별자치도 서귀포시 안덕면 화순로 119,3928033.629,14063392.13
씨유서귀사계포구점,제주특별자치도 서귀포시 안덕면 형제해안로 24,3925592.662,14060105.11
지에스25화순육,제주특별자치도 서귀포시 안덕면 화순로 142,3928074.911,14063122.73
레몬비안덕상천점,제주특별자치도 서귀포시 안덕면 상천로 12,3936268.368,14068752.32
세븐일레븐서귀포안덕서광점,제주특별자치도 서귀포시 안덕면 중산간서로 1760,3933365.598,14063475.92
씨유서귀평화로점,제주특별자치도 서귀포시 안덕면 한창로 273,3933109.235,14065620.13
씨유서귀창천점,제주특별자치도 서귀포시 안덕면 일주서로 1357,3930235.017,14067422.56
세븐일레븐서귀포서광리점,제주특별자치도 서귀포시 안덕면 평화로 618,3933756.675,14062485.02
지에스25서귀서광로점,제주특별자치도 서귀포시 안덕면 녹차분재로 61,3933952.82,14059776.36
씨유제주,제주특별자치도 서귀포시 안덕면 화순로 103,3928064.436,14063592.3
씨유소인국테마파크점,제주특별자치도 서귀포시 안덕면 중산간서로 1878,3933944.241,14062129.49
씨유제주산방산점,제주특별자치도 서귀포시 안덕면 사계남로216번길 29,3926378.046,14060811.36
세븐일레븐제주신화아띠점,제주특별자치도 서귀포시 안덕면 신화역사로188번길 151,3934735.633,14060583.51
씨유제주안덕큰길점,제주특별자치도 서귀포시 안덕면 일주서로 1723,3928703.469,14063404.19
지에스25산방사계로점,제주특별자치도 서귀포시 안덕면 사계로114번길 53-7,3927699.97,14060122.43
씨유서귀서광로타리점,제주특별자치도 서귀포시 안덕면 화순서서로 492-9,3933320.178,14060001.7
효재마트로또명당,제주특별자치도 서귀포시 안덕면 사계남로216번길 24-9,3926374.142,14060940.4
GS25서귀덕수점,제주특별자치도 서귀포시 안덕면 덕수서로 21,3928843.04,14060086.04
세븐일레븐서귀포상창점,제주특별자치도 서귀포시 안덕면 한창로 128,3931742.626,14066732.43
올레하우스편의점,제주특별자치도 서귀포시 안덕면 사계북로41번길 188-13,3928449.522,14059578.79
지에스25화순아일랜드점,제주특별자치도 서귀포시 안덕면 화순중앙로 94,3927736.684,14063658.41
레몬비안덕상천점,제주특별자치도 서귀포시 안덕면 상천로 12,3936268.368,14068752.32
씨유서귀서광신화점,제주특별자치도 서귀포시 안덕면 녹차분재로 64,3934012.7,14059767.03
지에스25뉴제주동광점,제주특별자치도 서귀포시 안덕면 신화역사로 493,3936578.72,14064144.42
씨유제주항공우주호텔점,제주특별자치도 서귀포시 안덕면 녹차분재로 216,3935518.755,14059055.39
GS25제주신화월드,제주특별자치도 서귀포시 안덕면 신화역사로304번길 38,3935852.5,14061478.63
씨유서귀사계,제주특별자치도 서귀포시 안덕면 산방로 363-1,3926049.706,14059438.52
지에스25안덕대평점,제주특별자치도 서귀포시 안덕면 난드르로 11,3926487.319,14067128.44
레몬비뽀로로점,제주특별자치도 서귀포시 안덕면 병악로 269,3935249.115,14067540.62
먹,제주특별자치도 서귀포시 안덕면 동광본동로 21,3936220.194,14063728.18
세븐일레븐서귀포동광IC점,제주특별자치도 서귀포시 안덕면 동광로 164,3936568.585,14064261.72
세븐일레븐서귀포덕수점,제주특별자치도 서귀포시 안덕면 덕수서로 91,3929690.992,14060124.9
버터행성-706,제주특별자치도 서귀포시 안덕면 서광동로25번길 11,3933671.492,14063010.98
씨유제주표선,제주특별자치도 서귀포시 표선면 표선중앙로 34,3939142.758,14118672.75
씨유표선가마리점,제주특별자치도 서귀포시 표선면 일주동로 6211,3936162.572,14116228.04
씨유제주토산점,제주특별자치도 서귀포시 표선면 중산간동로 5564-1,3938721.069,14111612.59
씨유제주표선해변길점,제주특별자치도 서귀포시 표선면 표선백사로 123,3938718.232,14119378.12
세븐일레븐서귀포가시리점,제주특별자치도 서귀포시 표선면 중산간동로 5264,3941843.33,14112410.58
씨유제주하천점,제주특별자치도 서귀포시 표선면 일주동로5645번길 1,3940628.987,14120402.03
씨유제주당케점,제주특별자치도 서귀포시 표선면 민속해안로 587,3938532.968,14120105.9
지에스25표선,제주특별자치도 서귀포시 표선면 표선동서로 239,3938555.574,14118906.47
씨유해비치리조트점,제주특별자치도 서귀포시 표선면 민속해안로 537,3938201.433,14120213.58
씨유표선남촌점,제주특별자치도 서귀포시 표선면 표선동서로 138-1,3937399.221,14118512.89
레몬비표선초교점,제주특별자치도 서귀포시 표선면 표선동서로 288,3939019.691,14119265.97
GS25제주표선점,제주특별자치도 서귀포시 표선면 표선중앙로 90,3938606.35,14119042.2
지에스25표선매봉점,제주특별자치도 서귀포시 표선면 일주동로 6200,3936281.473,14116333.08
씨유제주표선번영점,제주특별자치도 서귀포시 표선면 번영로 3521-2,3939797.261,14118547.06
세븐일레븐서귀포서성일로점,제주특별자치도 서귀포시 표선면 서성일로 180,3948942.245,14116781.33
씨유제주성읍교차로점,제주특별자치도 서귀포시 표선면 성읍민속로 304,3948388.316,14114004.32
세븐일레븐서귀포표선,제주특별자치도 서귀포시 표선면 일주동로 5705,3940036.947,14119993.63
씨유제주표선은하점,제주특별자치도 서귀포시 표선면 표선백사로 93,3938391.574,14119277.73
지에스25표선동서로점,제주특별자치도 서귀포시 표선면 표선동서로 76,3936874.99,14118038.18
씨유제주표선로얄점,제주특별자치도 서귀포시 표선면 표선관정로 79,3938576.027,14118589.4
씨유제주토산점,제주특별자치도 서귀포시 표선면 중산간동로 5564-1,3938721.069,14111612.59
씨유제주샤인빌리조트점,제주특별자치도 서귀포시 표선면 일주동로 6347-17,3935991.599,14114526.64
씨유서귀표선세화점,제주특별자치도 서귀포시 표선면 세화로 1,3936101.014,14115262.91
알토산편의점,제주특별자치도 서귀포시 표선면 일주동로 6431-1,3936135.825,14113609.35
지에스25제주성읍점,제주특별자치도 서귀포시 표선면 서성일로 24,3947745.215,14115457.19
씨유제주성읍점,제주특별자치도 서귀포시 표선면 서성일로 10,3947551.321,14115427.11
세븐일레븐서귀포성읍점,제주특별자치도 서귀포시 표선면 성읍정의현로 110,3947455.52,14115355.22
씨유제주표선리점,제주특별자치도 서귀포시 표선면 표선중앙로80번길 1,3938657.935,14118929.24
세븐일레븐서귀포표선해비치점,제주특별자치도 서귀포시 표선면 민속해안로 576,3938511.866,14120260.37
세븐일레븐서귀포표선점,제주특별자치도 서귀포시 표선면 표선동서로 192,3938018.968,14118722.35